,Cl.,Vendor,Cty,Name 1,Name 2,Name 3,Name 4,City,District,PO Box,PO Box pcd,PostalCode,Rg,SearchTerm,Street,Address
0,1,84010000,BR,CIELO S.A.,,,,Barueri,Alphaville,,,06454-050,SP,CIELO S.A.,Alameda Garajaú 219,44486
1,1,84010001,BR,Banco Bankpar S.A.,,,,Osasco,Vila Yara,,,06029-900,SP,BANKPAR,Nuc Cidade de Deus s/n,44487
2,1,84010002,BR,TRANS-DI TRANSPORTES LTDA,,,,SAO BERNARDO DO CAMPO,JD REPRESA,,,09842-080,SP,TRANSDI,EST GALVAO BUENO 7620,44488
3,1,84010003,BR,Agecom Telecomunicacoes e elet. LTD,,,,São Paulo,Planalto Paulista,,,04070-000,SP,AGECOM,AL Dos Guaios,44489
4,1,84010004,BR,Dimension Data LTDA,,,,Cariacia,Porto Engenho,,,29157-100,ES,DIMENSION,Rod Governador Mario Covas S/N,44490
5,1,84010005,BR,FUJITSU do Brasil LTDA,,,,São Paulo,Bela Vista,,,01327-001,SP,FUJITSU,R Treze de Maio 1633,44491
6,1,84010006,BR,HEWLETT-PACKARD Brasil LTDA,,,,Barueri,Tambore,,,06460-000,SP,HEWLETT-PA,Avenida Tambore,44492
7,1,84010007,BR,ICX SOLUCOES LTDA,,,,Indaiatuba,Jardim Esplanada,,,13331-501,SP,ICX SOLUCO,AV Fabio Ferraz Bicudo 292,44493
8,1,84010008,BR,JOHNSON CONTROLS Brasil LTDA.,,,,Sorocaba,Do Eden,,,18087-101,SP,JOHNSON CO,Avenida Independencia 2757,44494
9,1,84010009,BR,JOVICARD Sistemas LTDA - EPP,,,,São Paulo,Bela Vista,,,01333-011,SP,JOVICARD,R Cincinato Braga 59,44495
10,1,84010010,BR,Nestle Brasil LTDA.,,,,São Bernardo do Campo,Assuncao,,,09850-550,SP,NESTLE BRA,Estrada dos Alvarengas,44496
11,1,84010011,BR,S2M Consultaria LTDA,,,,São Paulo,Mirandopolis,,,04046-500,SP,S2M CONSUL,AV Jabaquara,44497
12,1,84010012,BR,Mercocon Consultoria LTDA,,,,Vinhedo,Candida,,,13280-000,SP,MERCOCON C,Rua Manoel Francisco de Araújo 322,44498
13,1,84010013,BR,MULTIPLAN GREENFIELD,,,,Rio de Janeiro,Barra da Tijuca,,,22640-102,RJ,MULTIPLAN,AV Das Americas 4200,44499
14,1,84010014,BR,BUD COMERCIO LTDA,,,,São Paulo,Jardim Santa Emilia,,,04183-090,SP,BUD COMERC,R Olympia Semeraro 6,44500
15,1,84010015,BR,SYNCHRO LTDA,,,,São Paulo,Brooklin Novo,,,04576-060,SP,SYNCHRO,R Samuel Morse 74,44501
16,1,84010016,BR,Ticket Serviços S/A,,,,Barueri,Alphaville,,,06455-020,SP,TICKET SER,Alameda Tocantins 125,44502
17,1,84010017,BR,Carlos Eduardo Moreira da Silva,,,,São Paulo,Jardim São Bento,,,05885-630,SP,CARLOS EDU,Rua Treze de Abril 16B,44503
18,1,84010018,BR,Cetra Centro de Engenharia,de Trânsito Ltda,,,São Paulo,Barra Funda,,,01135-000,SP,CETRA CENT,Rua Anhanguera 471,44504
19,1,84010019,BR,CECTHRA ENGENHARIA AUTOMOTIVA LTDA,,,,SÃO PAULO,Barra Funda,,,01139-000,SP,CECTRH,Avenida Marques de São Vicente 446,44505
20,1,84010020,BR,CTS Tur Agência de Viagens,Turismo Ltda-ME,,,São Paulo,República,,,01041-001,SP,CTS,Vinte e Quatro de Maio 35,44506
21,1,84010021,BR,MRH Veículos Ltda,,,,SÃO PAULO,Vila Olímpia,,,06420-090,SP,MRH SP,Cardoso de Melo 1507,44507
22,1,84010022,BR,Witte Comércio e Serviços Gráficos,,,,SÃO PAULO,Jardim Paulistano,,,01452-000,SP,WITTE COMÉ,Avenida Brigadeiro Faria Lima 2941,44508
23,1,84010023,BR,Robert Half Trabalho Temporario,Ltda.,,,São Paulo,Vila Olímpia,,,04548-004,SP,ROBERT,Av. Dr. Cardoso de Melo 1184,44509
24,1,84010024,BR,13 CARTORIO DE REGISTRO CIVIL,DO BUTANTA,,,São Paulo,BUTANTÂ,,,05501-020,SP,CARTORIO E,R. PIRAJUSSARA,44510
25,1,84010025,BR,TELEFONICA BRASIL S.A.,,,,SAO PAULO,CIDADE MONCOES,,,04571-936,SP,TELEFONICA,AV ENGENHEIRO LUIZ CARLOS BERR 1376,44511
26,1,84010026,BR,RENOVEBENS ADM. E C. SEGUROS LTDA,,,,SAO PAULO,VILA ANTONINA,,,03412-040,SP,RENOVEBENS,R PEDREIRA 134,44512
27,1,84010027,BR,PRIME CONTABILIDADE S/S LTDA - ME,,,,VITORIA,CENTRO,,,29010-490,ES,PRIME CONT,R HENRIQUE NOVAES 76,44513
28,1,84010028,BR,STORBACK TECNOLOGIA  LTDA,,,,SAO PAULO,JARDIM PAULISTA,,,01422-002,SP,STORBACK,AL FRANCA 1050,44514
29,1,84010029,BR,MAXETRON LTDA,,,,SAO PAULO,ACLIMACAO,,,01538-000,SP,MAXETRON,AV LINS DE VASCONCELOS 1042,44515
30,1,84010030,BR,SERASA S.A.,,,,SAO PAULO,PLANALTO PAULISTA,,,04068-000,SP,SERASA S.A,AL DOS QUINIMURAS 187,44516
31,1,84010031,BR,STAPLES BRASIL LTDA.,,,,SAO PAULO,VILA LEOPOLDINA,,,05313-020,SP,STAPLES BR,R OTHAO 339,44517
32,1,84010032,BR,MARINGA PASSAGENS E TURISMO LTDA,,,,BARUERI,CENTRO EMPRESARIAL DE ALPHAVILLE,,,06454-010,SP,MARINGA PA,AL MADEIRA 44,44518
33,1,84010033,BR,ABEIFA ASSOCIACAO,,,,SAO PAULO,JARDIM PAULISTA,,,04530-001,SP,ABEIFA ASS,R DR RENATO PAES DE BARROS 717,44519
34,1,84010034,BR,MOLEN PLANTEN HIDROCULTURA LTDA,,,,CAMPINAS,CHACARA DE RECREIO BARAO,,,13082-740,SP,MOLEN PLAN,ROD PROFESSOR ZEFERINO VAZ (SP 332),44520
35,1,84010035,BR,SECTOR INFORMATICA LTDA,,,,BARUERI,JARDIM BELVAL,,,06422-120,SP,SECTOR INF,AV GUPE 10767,44521
36,1,84010036,BR,GASPARINDO COMUNICACAO LTDA - EPP,,,,SAO PAULO,INDIANOPOLIS,,,04516-012,SP,GASPARINDO,AV PAVAO 955,44522
37,1,84010037,BR,BUREAU VERITAS LTDA,,,,RIO DE JANEIRO,CIDADE NOVA,,,20260-080,RJ,BUREAU VER,R JOAQUIM PALHARES 40,44523
38,1,84010038,BR,SOLUTION AUTOMACAO EMPRESARIAL LTDA,,,,JARDIM BRASIL,JARDIM BRASIL,,,04634-042,SP,SOLUTION A,R ATICA 583,44528
39,1,84010039,BR,AMIL ASSISTENCIA MEDICA,,,,SAO PAULO,JARDIM AMERICA,,,01431-000,SP,AMIL,AV BRASIL 703,44529
40,1,84010040,BR,MARIMEX DESPACHOS TRANSPORTES,,,,Santos,Macuco,,,11015-090,SP,MARIMEX DE,R Xavier Pinheiro 23,44530
41,1,84010041,BR,SINOPRESS - SISTEMAS,,,,São Paulo,CENTRO,,,01031-903,SP,SINOPRESS,AV PRESTES MAIA 321,44531
42,1,84010042,BR,BUREAU VERITAS DO BRASIL,SOC CLAS E CERTIFICADORA LTDA,,,São Paulo,JABAQUARA,,,04311-000,SP,BUREAU,AV DO CAFE 277,44532
43,1,84010043,BR,ESSENCE CONSULTORIA EM,INFORMATICA LTDA,,,SAO PAULO,CHACARA SANTO ANTONIO,,,04717-004,SP,ESSENCE CO,R ALEXANDRE DUMAS 1601,44533
44,1,84010044,BR,WESTCON BRASIL LTDA,,,,SERRA,TIMS,,,29161-376,ES,WESTCON BR,AV ACESSO RODOVIARIO S/N,44534
45,1,84010045,BR,CENTRO TECNICO DE VEICULOS,STUTTGART LTD,,,SAO PAULO,Vila Olimpia,,,04553-010,SP,CENTRO TEC,Av Dos Bandeirantes 485 A 1º,44535
46,1,84010046,BR,TEDDYHAUS EDUCAÇÃO INFANTIL LTDA -,,,,SAO PAULO,ALTO DA BOA VISTA,,,04735-002,SP,TEDDY,SÃO BENTO 1062,44536
47,1,84010047,BR,EPC INOVAÇÃO TRANSPORTES DE VEICULO,LTDA,,,SÃO PAULO,PARQUE NOVO MUNDO,,,02180-060,SP,EPC INOVAÇ,RUA: CABO ROMEU CASAGRANDE 134,44537
48,1,84010048,BR,BCLV COMERCIO DE VEICULOS S.A,,,,RIBEIRÃO PRETO,JD BOTANICO,,,14021-630,SP,BCLV COMER,AV WLADIMIR MEIRELLES FERREIRA 1650,44538
49,1,84010049,BR,PORTO SEGURO CIA DE SEGUROS GERAIS,,,,SAO PAULO,CAMPOS ELISEOS,,,01205-001,SP,PORTO SEGU,AV RIO BRANCO   1489,44539
50,1,84010050,BR,DORIA EDITORA LTDA,,,,SAO PAULO,JARDIM PAULISTANO,,,01452-000,SP,DORIA,AVENIDA BRIGADEIRO FARIA LIMA 2277,44540
51,1,84010051,BR,BCLV COMERCIO DE VEICULOS SA,,,,BRASILIA,ZONA INDUSTRIAL (GUARA),,,71215-100,DF,BCLV COMER,ST SGCV (ST GARAGENS E CONCES D S/N,44541
52,1,84010052,BR,2 RM TECNOLOGIA EM LIMPEZA COML LTD,,,,TABOAO DA SERRA,JARDIM MONTE ALEGRE,,,06755-260,SP,2 RM TECNO,AVENIDA JOSE ANDRE DE MORAE BLOCO B,44542
53,1,84010053,BR,SNAP-ON DO BRASIL COMÉRCIO E INDÚST,,,,SANTA BARBARA D'OESTE,DISTRITO INDUSTRIAL,,,13456-401,SP,SNAP-ON DO,RUA JUSCELINO KUBITSCHEK DE OLI 470,44543
54,1,84010054,BR,Scansource Brasil Distribuidora de,Tecnologias Ltda.,,,São José Dos Pinhais,IPE,,,83055-320,PR,SCANSOURCE,Avenida Rui Barbosa 2529,44544
55,1,84010055,BR,WESTCON BRASIL LTDA,,,,SÃO PAULO,SANTA CATARINA,,,04371-000,SP,WESTCON,RUA RISHIN MATSUDA 501,44545
56,1,84010056,BR,Ultra maquinas Comercial de Ferrame,Ltda,,,São Paulo,JD Maringa,,,0352-7000,SP,ULTRA,Av Arincaduva 3513,44546
57,1,84010057,BR,"4 Takes Ind, Com, Serv e Particip L",,,,São Paulo,Vila Guarani,,,04310-060,SP,4 TAKE,Av Pedro Severino Junior 366 Con 96,44547
58,1,84010058,BR,Cisa Trading S/A,,,,Vitória,Santa Lucia,,,29056-250,ES,VEH_SUPPLI,Av. Nossa Senhora da Penha 699,44552
59,1,84010059,BR,TK Logística do Brasil LTDA.,,,,Indaiabuta,Sapezal,,,13337-200,SP,TK LOGÍSTI,Estrada Municipal - Galpão 2 823,44554
60,1,84010060,BR,PORSCHE CLUBE DO BRASIL,,,,SAO PAULO,JARDIM EUROPA,,,01449-001,SP,PORSCHE CL,AV EUROPA 459,44579
61,1,84010061,BR,TERRAMARI LOCADORA DE VEICULOS,,,,SAO PAULO,VILA ANTONIO/BUTANTA,,,05376-030,SP,TERRAMARI,"AV MAURO MARQUES DA 104, LT 10 104",44580
62,1,84010062,BR,REVISAO - CLINICA MEDICINA LTDA,,,,SAO PAULO,JARDIM PAULISTA,,,01401-000,SP,REVISAO CL,AV BRIGADEIRO LUIS 2729,44581
63,1,84010063,BR,MES PROMOCAO E ORGANIZACAO,,,,SANTANA DE PARNAIBA,ALPHAVILLE,,,06541-055,SP,MES PROM R,CALC ALDEBARA 152,44582
64,1,84010064,BR,THE FRONT COMUNICACAO VISUAL,,,,SAO PAULO,VILA PAULISTA,,,04360-001,SP,FRONT COM,AV DOUTOR LINO DE MORAES LEME 55,44583
65,1,84010065,BR,MAZER INDUSTRIA GRAFICA E EDITORA,,,,TIETE,PONTE ALTA,,,18530-000,SP,MAZER GRAF,"ROD CORNELIO PIRES S/N, KM74+500M",44584
66,1,84010066,BR,VIPVOIP WIMAX NETWORK,,,,SAO PAULO,VILA GUILHERME,,,02065-010,SP,VIPVOIP,AV JOAQUINA RAMALHO 121,44585
67,1,84010067,BR,CARE PLUS MEDICINA ASSISTENCIAL,,,,BARUERI,ALPHAVILLE,,,06473-073,SP,CARE PLUS,AV SAGITARIO 138,44586
68,1,84010070,BR,ABRIL COMUNICACOES S.A.,,,,SAO PAULO,NOSSA SENHORA DO O,,,02909-900,SP,ABRIL COMU,AV OTAVIANO ALVES DE LIMA 4400,53747
69,1,84010071,BR,JATO DO BRASIL INFORM AUTOMOTIVAS L,,,,SAO PAULO,BELA VISTA,,,01333-011,SP,JATO DO BR,RUA CINCINATO BRAGA 321,53748
70,1,84010072,BR,América Net Ltda.,,,,Barueri,Sitio Tambore,,,06460-040,SP,AMÉRICA,Avenida Marcos Penteado 939 C.502,53749
71,1,84010073,BR,CENTRAL DE EVENTOS CONSULTORIA,,,,BARUERI,CENTRO EMPRESARIAL DE ALPHAVILLE,,,06454-010,SP,CENTRAL DE,AL MADEIRA 44,53750
72,1,84010074,BR,Magneti Marelli Sistemas,,,,Hortolandia,Jardim Santa Rita De Cassia,,,13184-654,SP,MAGNETI MA,"Av da Emanicipacao 801, Galpao 01",53751
73,1,84010075,BR,CENTRO DE INTEGRACAO EMPRESA ESCOLA,,,,SAO PAULO,ITAIM BIBI,,,04533-001,SP,CIEE,RUA TABAPUA 540,53752
74,1,84010076,BR,PLANETA VERDE PROMOCOES,EVENTOS E IMPORTACOES LTDA. - ME,,,JUNDIAI,JARDIM TEREZA CRISTINA,,,13212-439,SP,PLANETA VE,"AV REYNALDO DE PORCA 2111, LOTE: 22",53753
75,1,84010077,BR,TRAMAWEB AGENCIA DE NOTICIAS LTDA -,,,,São Paulo,INDIANOPOLIS,,,04516-012,SP,TRAMAWEB,"RUA PAVAO 955, CONJ 141",53754
76,1,84010078,BR,"CHAVES, GELMAN, MACHADO, GILBERTO",E BARBOZA SOCIEDADE DE ADVOGADOS,,,São Paulo,JARDIM PAULISTANO,,,01452-001,SP,CGM,AV BRIGADEIRO FARIA LIMA 1663,53755
77,1,84010079,BR,BLINDARTE SERV ESP EM BLINDAGENS LT,,,,Barueri,ALPHAVILLE CENTRO IND.,,,06465-120,SP,BLINDARTE,R CEARA 58,53756
78,1,84010080,BR,TEGMA LOGÍSTICA INTEGRADA S/A,,,,Cariacica,Porto Engenho,,,29157-100,ES,VEH_STORAG,Rodovia Governador Mário Co Mod. 01,53757
79,1,84010081,BR,HP Brasil Ind.Com.Equip.Eletr.Ltda.,,,,Sorocaba,Iporanga,,,18087-170,SP,HP,Av Liberdade 6315 Pred5,53902
80,1,84010082,BR,MRH veiculos LTDA,,,,Recife,Imbiribeira,,,51150-003,PE,MRH,Av Mal Mascarenhas de Moraes 2423,53903
81,1,84010083,BR,CENTRAL DE EVENTOS CONSULTORIA,,,,SAO PAULO,REPUBLICA,,,01046-001,SP,CENTRAL DE,AV SAO LUIS 165,53907
82,1,84010084,BR,HUSSEIN KS CONSULTORIA,,,,São Paulo,BELA VISTA,,,01311-000,SP,HUSSEIN,"AV PAULISTA 491, CONJ: 131",53908
83,1,84010085,BR,TMF BRASIL SERVICOS ADMINISTRATIVOS,E PROCESSAMENTO DE DADOS LTDA.,,,BARUERI,TAMBORE,,,06460-110,SP,TMF,AL CAIAPOS 243,53910
84,1,84010086,BR,JBVM SERVICOS EDITORIAIS EIRELI - M,,,,FLORIANOPOLIS,CENTRO,,,88015-200,SC,JBVM - EIR,AV RIO BRANCO 404,53911
85,1,84010087,BR,NELY & MARTINS LTDA - ME,,,,CARIACICA,CAMPO GRANDE,,,29146-140,ES,NELY & MAR,AV RIO BRANCO 23,53912
86,1,84010088,BR,PAPEIS E EMBALAGENS N.T.A. EIRELI,,,,SAO PAULO,CAMBUCI,,,01542-020,SP,EIRELI,R AUGUSTO DE TOLEDO 131,53913
87,1,84010089,BR,REED EXHIBITIONS ALCANTARA MACHADO,,,,SAO PAULO,JARDIM PAULISTA,,,01415-001,SP,REED EXHIB,RUA BELA CINTRA 1200,53991
88,1,84010090,BR,LOOKMYSITE AGENCIA DIGITAL LTDA-ME,,,,SÃO PAULO,JARDIM SATELITE,,,04815-060,SP,LOOKMYSITE,RUA QUERINO LANDI 264,53992
89,1,84010091,BR,VALOR ECONOMICO S/A,,,,SAO PAULO,AGUA BRANCA,,,05001-100,SP,VALOR,"AV. FRANCISCO MATARAZ 1500, CONJ 11",53993
90,1,84010092,BR,EMPRESA FOLHA DA MANHÃ S.A.,,,,SÃO PAULO,CAMPOS ELISEOS,,,01202-900,SP,EMPRESA FO,ALAMEDA BARÃO DE LIMEIRA 425,53994
91,1,84010093,BR,TALQUIMY COMUNICAÇÃO LTDA,,,,SÃO PAULO,HIGIENOPOLIS,,,01242-001,SP,TALQUIMY,"RUA ALAGOAS 319, APTO 131",53995
92,1,84010094,BR,ADP BRASIL LTDA,,,,SAO PAULO,VILA ANASTACIO,,,05077-000,SP,ADP,RUA JOÃO TIBIRICA 1112,53996
93,1,84010095,BR,DHL EXPRESS (BRAZIL) LTDA,,,,SAO PAULO,LAPA,,,05036-000,SP,DHL EXPRES,"AV SANTA MARINA 1660, PRED A",53997
94,1,84010096,BR,PRICE WATERHOUSE COOPERS CONTADORES,PUBLICOS LTDA,,,SAO PAULO,AGUA BRANCA,,,05001-100,SP,PRICE,AVENIDA FRANCISCO MATARAZZO 1400,53998
95,1,84010097,BR,TELEFONICA BRASIL S.A.,,,,VITORIA,PARTE A,,,29055-022,ES,TELEFONICA,AV. NOSSA SENHORA DA PENHA 275,53999
96,1,84010098,BR,CLARO S.A.,,,,SAO PAULO,CIDADE MONCOES,,,04565-001,SP,CLARO S.A,RUA FLORIDA 1870,54000
97,1,84010099,BR,PIRELLI PNEUS LTDA,,,,BARUERI,JARDIM MARIA CRISTINA,,,06421-300,SP,PIREELI,RODOVIA PRESIDENTE CASTELO BR 11660,54001
98,1,84010100,BR,BT MORUMBI HOTEIS LTDA,,,,SAO PAULO,JARDIM DAS ACACIAS,,,04707-000,SP,BT MORUMBI,AV ROQUE PETRONI JUNIOR 1000,54002
99,1,84010101,BR,VOLKSWAGEN DO BRASIL INDUSTRIA DE,VEICULOS AUTOMOTORES LTDA,,,SAO BERNARDO DO CAMPO,DEMARCHI,,,09823-901,SP,VOLKSWAGEN,EST MARGINAL DA VIA ANCHIETA S/N,54003
100,1,84010102,BR,Trans-Ferrari Transporte e Logistic,,,,TABOAO DA SERRA,Vila Iasi,,,06767-280,SP,TRANS-FERR,Estrada Benedito Cesario de Oli 100,54414
101,1,84010103,BR,Schenker Do Brasil Transportes,Internacionais Ltda,,,Santos,Centro,,,11013-020,SP,SCHENKER,Av Senador Feujo 14 Sala62,54415
102,1,84010104,BR,Schenker Do Brasil Transportes,Internacionais Ltda,,,Guarulhos,Aeroporto,,,07190-100,SP,SCHENKER,Rod Helio Smidt S/NSala225,54416
103,1,84010105,BR,Schenker Do Brasil Transportes,,,,São Paulo,Itaim Bibi,,,04531-010,SP,SCHENKER,Rua Pedroso Alvarenga 1208 An 15,54425
104,1,84010106,BR,BVHD Locação de Veiculos e Serviços,,,,São Paulo,Vila Nova Conceição,,,04537-081,SP,BVHD,Rua Comendador Miguel Calfat 460,54652
105,1,84010107,BR,ORTEC EMPRESARIAL CONTABIL EIRELI,EPP,,,SAO PAULO,SANTANA,,,02035-020,SP,ORTEC,R DOUTOR ZUQUIM 586,54668
106,1,84010108,BR,CAMARA DE COMERCIO E INDUSTRIA BRAS,ALEMANHA SÃO PAULO,,,São Paulo,Chacara Santo Antonio,,,04719-904,SP,CAMARA BRA,Rua Verbo Divino 1488,54671
107,1,84010109,BR,Herali Tecnologia Ltda.,,,,Barueri,Jardim Tupanci,,,06414-000,SP,HERALI,Rua Marte 429,54672
108,1,84010110,BR,Sincodiv Sindicato dos Concessionár,Distribuidores de Veiculos do Estad,,,São Paulo,Indianopolis,,,04063-003,SP,SINCODIV,Av Indianopolis 1967,54673
109,1,84010111,BR,Enproplan Serviços Administrativos,ME,,,São Paulo,Sé,,,01004-010,SP,ENPROPLAN,Rua Quintino Bocaiuva 161 CJ 51,54674
110,1,84010112,BR,"ALLPARK EMPREENDIMENTOS, PARTICIPAC",,,,SAO PAULO,SANTO AMARO,,,04709-111,SP,ALLPARK,RUA HENRI DUNANT 1383,54794
111,1,84010113,BR,EXPERLA CONSULTORIA LTDA EPP,,,,BARUERI,CACHOEIRA DO FUNIL/CRUZ PRETA,,,06414000,SP,EXPERLA,RUA MARTE 429,54795
112,1,84010115,BR,PRINTING SOLUTIONS & INTERNET 7 S.A,,,,SAO PAULO,JARDIM INDEPENDENCIA,,,03223-110,SP,PRINTING,RUA SECUNDINO DOMINGUES 300,54904
113,1,84010116,BR,Planus Informatica e Tecnologia,,,,Barueri,Sitio Tambore,,,06460-000,SP,PLANUS,Avenida Tambore 1400,54989
114,1,84010117,BR,Connect Instalações Tecnicas Ltda.,,,,São Paulo,Vila Cruzeiro,,,04726-230,SP,CONNECT,Rua Cap Fonseca 108,54990
115,1,84010118,BR,Prime Brazil Pesquisas de Midia,,,,São Paulo,Chacara Santo Antonio,,,04719-002,SP,PRIME,Rua Verbo Divino 1488 3º A,54991
116,1,84010119,BR,Verbis Brasil Ltda.,,,,RIBEIRÃO PRETO,Jardim Botânico,,,14021-635,SP,VERBIS,Rua Luciana Mara Ignacio 1075,54992
117,1,84010120,BR,R.S.G Santos Produções Graficas,,,,São Paulo,Tucuruvi,,,02330-003,SP,R.S.G,Av Nova Cantareira 1984 CJ143,54993
118,1,84010121,BR,PRX Comercio e Serviços Automotivos,Eireli Me,,,São Paulo,Vila Mascote,,,04363-060,SP,PRX COMERC,Rua Arapa 33,54994
119,1,84010122,BR,Opção JCA-Turismo E fretamento Ltda,,,,Rio de Janeiro,Caju,,,20931-005,RJ,OPÇÃO JCA,Rua Carlos Seidl 950 Sala 7,54995
120,1,84010123,BR,Lavanderia Oliveira e Fischer Ltda-,,,,São Paulo,Chacara Santo Antonio,,,04717-002,SP,LAVANDEIRA,Rua Alexandre Dumas 1225,54996
121,1,84010124,BR,INOVART EVENTOS E LOCAÇÃO LTDA EPP,,,,Rio de Janeiro,Campo Grande,,,23093-10,RJ,INOVART,Rua Ronaldo do Santos 50,54997
122,1,84010125,BR,Maria Wolfringe Associados Ltda,,,,Rio de Janeiro,Jardim Botanico,,,22461-040,RJ,MARIA WOLF,Rua Senad Simonsen 200,54998
123,1,84010126,BR,Perfect Removedores de Amassados,,,,Santo Andre,Parque Represa Billings III,,,09160-470,SP,PERFECT,Rua Cruzeiro do Oeste 242,54999
124,1,84010127,BR,Tax Vision Consultoria e Tecnologia,,,,Sao Paulo,Cerqueira Cesar,,,04709-111,SP,TAX VISION,Al Santos 02480 1383,55000
125,1,84010128,BR,M2GLP COMERCIO E SERVICOS GRAFICOS,,,,SAO PAULO,CHACARA SANTO ANTONIO,,,04715004,SP,M2GLP C,RUA AMERICO BRASILIENSE 1866,55001
126,1,84010129,BR,ROGERIO RODRIGUES,,,,SAO PAULO,PARQUE CISPER,,,03819080,SP,ROGERIO,RUA CANUTAMA 150,55002
127,1,84010130,BR,FIVE TRANSPORTES EIRELI EPP,,,,SAO PAULO,MOOCA,,,03165001,SP,FIVE,RUA DA MOOCA 3023,55003
128,1,84010131,BR,CCEURO CENTRO CULTURAL EURO AMERICA,SOCIEDADE SIMPLES LTDA,,,SAO PAULO,BAIRRO DE PERDIZES,,,05011001,SP,CCEURO,RUA WANDERLEY 0637,55004
129,1,84010132,BR,HOCHHEIMER IMPERATORI ARQUITETURA S,,,,SAO PAULO,PINHEIROS,,,054250-001,SP,HOCHHEIMER,RUA EUGENIO DE MEDEIROS 466,55005
130,1,84010133,BR,MRH VEICULOS LTDA,,,,CURITIBA,REBOUCAS,,,80230-100,PR,MRH VEICUL,RUA DESEMBARGADOR WESTPHALEN 1783,55006
131,1,84010134,BR,Vinicius Rojo Machado-ME,,,,São Paulo,Vila Clementino,,,04127-040,SP,VINICIUS,Rua Belmiro de Almeida,55007
132,1,84010135,BR,LOJAS COLOMBO SA,,,,CURITIBA,CIDADE INDUSTRIAL,,,81350-240,PR,LOJAS COLO,RUA CELESTINO MESSING DE 411,55008
133,1,84010136,BR,Advanced Group Ltda-Me,,,,Campinas,Center Santana Genebra,,,13080-655,SP,ADVANCED,Avenida João Scarparo 170 Qui 1,55009
134,1,84010137,BR,Ultra Maquinas Comercial de Ferrame,Ltda.,,,São Paulo,Jd Maringa,,,03527-000,SP,ULTRA,Av Arincaduva 3513,55010
135,1,84010138,BR,Westcon Brasil Ltda.,,,,SERRA,QD 08 Mod,,,29161-376,ES,WESTCON,Av Acesso Rodoviario S/N,55011
136,1,84010139,BR,V COMERCIO DE PRODUTOS LTDA-ME,,,,BELO HORIZONTE,PRADO,,,30411-228,MG,VL COMERCI,RUA SELENIO 276,55012
137,1,84010140,BR,Moveis Ricco Ltda.,,,,São Paulo,Belenzinho,,,03024-000,SP,MOVEIS,Rua Cachoeira 50,55013
138,1,84010141,BR,Opção X Em Serviços Temporarios Ltd,,,,São Paulo,Sumarezinho,,,05437-000,SP,OPÇÃO X,Rua heitor Penteado 593,55014
139,1,84010142,BR,RIO JV PARTNERS PARTICIPAÇOES LTDA,,,,RIO DE JANEIRO,BARRA DA TIJUCA,,,22795-007,RJ,RIO JV,AV LUCIO COSTA 9600,55136
140,1,84010143,BR,Locadora Mantovani Comercial,,,,São Paulo,Liberdade,,,01504-001,SP,LOCADORA,Rua Vergueiro 259,55145
141,1,84010144,BR,HDI Global Seguros S.A,,,,São Paulo,Brooklin Novo,,,04571-010,SP,HDI GLOBAL,AV Eng Luis Carlos Berrini 901,55146
142,1,84010145,BR,ZURICH MINAS BRASIL SEGUROS S/A,,,,BELO HORIZONTE,FUNCIONARIOS,,,30112-021,MG,ZURICH,AV GETULIO VARGAS 1420  5 E,55147
143,1,84010146,BR,ROCKSET PRODUCAO E PUBLICIDADE LTDA,,,,ITAJAI,CENTRO,,,88301-904,SC,ROCKSET,"AV CORONEL MARCOS K 1313, COND LJ19",55148
144,1,84010147,BR,HOTEL VILLA LOBOS,,,,EXTREMA,PONTE NOVA,,,37640-000,MG,HOTEL VILL,AV DELEGADO WALDEMAR GOMES PIN 1407,55149
145,1,84010148,BR,BENEDITO EDUARDO CASSIMIRO LOPES -,,,,EXTREMA,RODEIO,,,37640-000,MG,BENEDITO,ESTM TICA BERTOLOTI S/N,55150
146,1,84010149,BR,"MASA - FOTOLITO, GRAFICA E EDITORA",,,,SAO PAULO,DO LIMAO,,,02754-000,SP,MASA,R SILVERIO GONCALVES 219,55151
147,1,84010150,BR,SATYAWORK DESENVOLVIMENTO ORGANIZAC,LTDA - EPP,,,SAO PAULO,PACAEMBU,,,01249-040,SP,SATYAWORK,R MARIO DE MELO 109,55152
148,1,84010151,BR,TA IDIOMAS LTDA,,,,São Paulo,Centro,,,01009-000,SP,TA IDIOMAS,Rua Libero Badaro 29 AND,55171
149,1,84010152,BR,MM Sport Club Eventos Esportivos,,,,São Paulo,Vila Olimpia,,,04551-000,SP,MM SPORT,Rua Olimpiadas 205 Sala 1,55172
150,1,84010153,BR,Tecbras Assitencia Tecnica,,,,São Paulo,Vila Cruzeiro,,,04727-000,SP,TECBRAS AS,Rua Bragança Paulista 128,55173
151,1,84010154,BR,TAFAMUS RIO COMERCIAL LTDA,,,,Rio de Janeiro,GAVEA,,,22470-060,RJ,TAFAMUS,PRAÇA SANTOS DUMONT 31,55174
152,1,84010155,BR,HOTEL VILLA LOBOS,,,,EXTREMA,PONTE NOVA,,,37640-000,MG,HOTEL VILL,AV DEL WALDEMAR GOMERS PINTO 1407,55175
153,1,84010156,BR,MAX TOUR FRETAMENTO E TURISMO,,,,EXTREMA,PONTE NOVA,,,37640-000,MG,MAX TOUR F,AV NICOLOU CESARIANO 1293,55176
154,1,84010157,BR,INGRAM MICRO BRASIL LTDA.,,,,SERRA,NOVA ZELANDIA,,,29175-706,ES,INGRAM,RUA PORTO ALEGRE 307 G 01,55177
155,1,84010158,BR,PIRELLI COMERCIAL DE PNEUS BRASIL L,,,,Barueri,JD MARIA CRISTINA,,,06421-300,SP,PIRELLI,ROD.PRESIDENTE CASTELO B 11660 AR27,55210
156,1,84010159,BR,MSAVIANI COMUNICAÇÃO E DESIGN,,,,SÃO PAULO,VILA PROGREDIDOR,,,05615-000,SP,MSAVIANI,RUA JOSÉ JANNARELLI 75,55211
157,1,84010160,BR,RESTAURANTE DA PRACA 19 LTDA.,,,,SÃO PAULO,VILA OLIMPIA,,,04546-002,SP,RESTAURANT,RUA CASA DO ATOR 608,55225
158,1,84010161,BR,SALUSSE MARANGONI,,,,SÃO PAULO,PLANALTO PAULISTA,,,01310-923,SP,SALUSSE MA,AV PAULISTA 1842 12 AN,55226
159,1,84010162,BR,OFICINA 259 EDITORA E COMUNICAÇÃO,,,,SÃO PAULO,MORUMBI,,,05678-000,SP,OFICINA,AV DOUTOR ALBERTO PENTEA 900 CASA03,55227
160,1,84010163,BR,MRS SERVIÇOS DE REALOZAÇÃO,,,,Rio de Janeiro,CENTRO,,,20090-010,RJ,MRS,RUA SÃO BENTO 9 SALA 401,55228
161,1,84010164,BR,TELEGRAMA CONNCECTION LTDA.,,,,SÃO PAULO,CIDADE MONÇOES,,,04576-020,SP,TELEGRAMA,RUA GEORGE OHM 116,55321
162,1,84010165,BR,PANALPINA LTDA.,,,,CAMPINAS,CENTRO,,,13010-001,SP,PANALPINA,AV DR MORAEZ SALLES 711,55342
163,1,84010166,BR,S/A O ESTADO DE S.PAULO,,,,SÃO PAULO,LIBERADADE,,,02598-900,SP,ESTADO DE,AV ENG CAETANO ALVARES 55 3ANDAR,55347
164,1,84010167,BR,UNLIMITED SPORTS PROMOCOES DE EVENT,LTDA,,,SÃO PAULO,MORUMBI,,,05614-120,SP,UNLIMITED,RUA PROFESSOR EDUARDO MONTEIRO 200,55348
165,1,84010168,BR,MARSHAL SERVICOS DE APOIO,ADMINISTRATIVO,,,SÃO PAULO,SANTANA,,,02016-001,SP,MARSHAL,RUA SALETE 201 CONJ 5,55353
166,1,84010169,BR,SEVENCARD ADESIVOS LTDA.ME,,,,DIADEMA,VILA NOGUEIRA,,,09951-000,SP,SEVERNCARD,RUA ANTONIO DIAS ADORNO 937,55354
167,1,84010170,BR,GRESSE HANASHIRO-EVENTOS ESPORTIVOS,,,,SÃO PAULO,CAMPO BELO,,,04607-001,SP,GRESSE,RUA ANTONIO DE MACEDO SO 1212 AP 91,55355
168,1,84010171,BR,ONDULAPEL IND E COM DE EMBALAGENS L,,,,GUARULHOS,JD SÃO GERALDO,,,07140-230,SP,ONDULAPEL,AV OTAVIO BRAGA DE MESQUITA 3450,55356
169,1,84010172,BR,MELTING COLOR GRAFICA E EDITORA,,,,SÃO BERNARDO DO CAMPO,PLANALTO,,,09895-310,SP,METLING,RUA ANDRE ROSA COPPINI 35,55357
170,1,84010173,BR,FERNANDO TORRESON PAULINO,,,,SÃO PAULO,VILA VITORIO MAZZEI,,,02409-0000,SP,FERNANDO,RUA LARIVAL GEA SANCHES 565 CASA 1,55358
171,1,84010174,BR,ANTONIA APARECIDA REGIS SILVA PAPEI,,,,SÃO PAULO,CAMBUCI,,,01542-020,SP,ANTONIA,RUA AUGUSTO DE TOLEDO 131,55359
172,1,84010175,BR,MERCEDEZ-BENZ DO BRASIL LTDA.,,,,SÃO BERNARDO DO CAMPO,VILA PAULICEIA,,,09680-900,SP,MERCEDEZ,AV ALFRED JURZYKOWSKI 562,55422
173,1,84010176,BR,Quinta da Baroneza Golfe Clube,,,,Bragança Paulista,Quinta da Baroneza II,,,012918-001,SP,QUINTA,"Rod Alkindar Monteiro Junqu KM 33,5",55435
174,1,84010177,BR,KUEHNE NAGEL,,,,EMBU DAS ARTES,ITATUBA,,,06845-175,SP,KUEHNE NAG,ESTRADA DONA MARIA JOSE FERRAZ 1481,55445
175,1,84010178,BR,GUILHERME DE FARIA GIACHERO,,,,SÃO PAULO,Vila Olimpia,,,04552-050,SP,GUILHERME,RUA HELENA 300 AP 84,55501
176,1,84010179,BR,CADASTRO INATIVO,,,,SÃO PAULO,BUTANTA,,,05630-130,SP,CINTIA,RUA PROF J.H.MEIRELLES T 806  AP 13,55514
177,1,84010180,BR,SOCIEDADE ESCOLAR BARAO DO RIO BRAN,COLEGIO HUMBOLD,,,SÃO PAULO,INTERLAGOS,,,04784-010,SP,SOCIEDADE,AV ENG ALBERTO KUHLMANN 525,55515
178,1,84010181,BR,PROJETO MOVA PRODUCOES CINEMATOGRAF,,,,SÃO PAULO,CONSOLOÇÃO,,,01228-200,SP,PROJETO MO,AV ANGÉLICA 1814 CJ608,55531
179,1,84010182,BR,VCA SOUTH AMERICA,,,,SÃO PAULO,VILA CORDEIRO,,,04583-110,SP,VCA,AV DR CHUCRI ZAIDAN 1550 C1509,55532
180,1,84010183,BR,"DOCA8 COMUNICACAO, PROMOCAO E EVENT",LTDA.,,,SÃO PAULO,STO ANTONIO,,,04721-050,SP,DOCA8,RUA MADRE RITA AMADA DE JESUS 135,55533
181,1,84010184,BR,HOTEL IN ONE RESTAURANTE LTDA-EPP,,,,ITU,TERRAS DE SÃO JOSÉ,,,013306-443,SP,HOTEL IN,AL SÃO JOSE GOLF,55534
182,1,84010185,BR,FAU-Fundacao de Apoio,,,,UBERLÂNDIA,MARTINS,,,38400-462,MG,FAU- FUNDA,AV ENGENHEIRO DINIZ 1178,55572
183,1,84010186,BR,FAGOT SERVICOS EMPRESARIAIS S/S LTD,,,,SÃO PAULO,VL NOVA CONCEICAO,,,04544-150,SP,FAGOT,RUA CORONEL JOAQUIM FERREIRA LOB 34,55573
184,1,84010187,BR,P.3 ADMINISTRACAO EM COMPLEXOS,IMOBILIARIOS LTDA,,,SÃO PAULO,VILA NOVA CONCEICAO,,,04508-011,SP,P.3-ADMINI,RUA PROF FILIADELFO AZEV 717 AP 905,55589
185,1,84010188,BR,WM LIMP SERVICE EIRELI-ME,,,,CARIACICA,PRESIDENTE MÉDICI,,,29153-710,ES,WM,RUA NOCA AMERICA 1077 PA 01,55598
186,1,84010189,BR,SIGNOS DESENVOLVIMENTO LINGUISTICO,EIRELI-EPP,,,SÃO PAULO,PINHEIROS,,,05429-040,SP,SIGNOS,RUA VUPABUSSU 91,55599
187,1,84010190,BR,SOMPUR SAO PAULO RADIODIFUSAO LTDA.,,,,SÃO PAULO,JARDIM LEONOR,,,053314-00,SP,SOMPUR,RUA CARLOS CYRILLO JUNIOR 92,55625
188,1,84010191,BR,MMR TRANSPORTES E LOGISTICA EIRELI-,,,,SÃO PAULO,VILA CAMPESTRE,,,04330-090,SP,MMR,RUA GUIAN 878 CONJ 3,55677
189,1,84010192,BR,TVSBT CANAL 4 DE SAO PAULO,,,,OSASCO,VILA JARAGUA,,,06276-905,SP,TVSBT CANA,AV DAS COMUNICACOES 04,55678
190,1,84010193,BR,RADIO E TELEVISAO BANDEIRANTES S.A,,,,PORTO ALEGRE,STO ANTONIO,,,90660-120,RS,RADIO BAND,RUA DELFINO RIET 183,55679
191,1,84010194,BR,BVGE COMERCIO DE VEICULOS LTDA.,,,,RIBEIRÃO PRETO,JD BOTANICO,,,14020-380,SP,BVGE,AVENIDA PORTUGAL 2537,55687
192,1,84010195,BR,DUDA BAIRROS FOTOGRAFIA LTDA,,,,SÃO PAULO,CHACARA SANTO ANTONIO,,,04717-003,SP,DUDA,RUA ALEXANDRE DUMAS 1480,55713
193,1,84010196,BR,ONYOU LEVANTAMENTO DE INFORMACAO,,,,SÃO PAULO,PERDIZES,,,05015-040,SP,ONYOU,RUA DR FRANCO DA ROCHA 137,55714
194,1,84010197,BR,LUVICOMP LOCACOES E SERVICOS LTDA.,,,,EMBU DAS ARTES,JARDIM VALO VERDE,,,06814-135,SP,LUVICOMP,RUA SÃO CAETANO 845,55723
195,1,84010198,BR,PROXIMA PAGINA CONSULTORIA LTDA.,,,,SÃO PAULO,PLANALTO PAULISTA,,,04067-002,SP,PROXIMA PA,AL DOS GUAINUMBIS 943,55811
196,1,84010199,BR,SAEPART SOCIEDADE DE ADMINIST E,EMPREENDIMENTOS E PARTIC LTDA,,,SÃO PAULO,VILA NOVA CONCEICAO,,,04543-00,SP,SAEPART,AV PRES JUSCELINO KUBITSCH 1830 2 A,55812
197,1,84010200,BR,PANALPINA LTDA,,,,Guarulhos,AEROPORTO,,,7190-100,SP,PANALPINA,RODOVIA HÉLIO SMIDT S/N,55852
198,1,84010201,BR,FRANCISCO RONEI DOS SANTOS,,,,São Paulo,VILA NOVA CONCEICAO,,,04506-003,SP,FRANCISCO,AV STO AMARO 1950,55871
199,1,84010202,BR,GRAFSTOCK GRAFICA E COMUNICAÇÃO VIS,,,,SÃO PAULO,CASA VERDE,,,02512-010,SP,GRAFSTOCK,RUA ZANZIBAR 687,55872
200,1,84010203,BR,NATACHA PALMA,,,,SÃO PAULO,TATUAPE,,,03061-020,SP,NATACHA PA,RUA ENGENHEIRO BALEM 185,55937
201,1,84010204,BR,V10 VISUAL IMPRESSÃO DIGITAL LTDA.,,,,São Paulo,Carandirú,,,02033-010,SP,V10 VISUAL,AVENIDA GENERAL ATALIBA LEONEL 2311,55938
202,1,84010205,BR,RARUS FLATS EMP.IMOB.LTDA,,,,SÃO PAULO,JARDIM PAULISTA,,,01407-000,SP,RARUS,AV NOVE DE JULHO 3229,55972
203,1,84010206,BR,RIAN ALBINO DE ASSIS,,,,SÃO PAULO,VILA MADALENA,,,05433-002,SP,RIAN,RUA GIRASSOL 1540 AP 23,55973
204,1,84010207,BR,NESS PROMOCOES E PRODUCOES DE EVENT,,,,SÃO PAULO,PINHEIROS,,,05407-002,SP,NESS,RUA CARDEAL ARCOVERDE 1749,55974
205,1,84010208,BR,GLOBAL LANGUAGES EDITORACAO ELETRON,LTDA ME,,,SÃO PAULO,BELA VISTA,,,01310-000,SP,GLOBAL,AV PAULISTA 352 A8 C86,55975
206,1,84010209,BR,Competicion Transportes de Veiculos,Competicion,,,São Paulo,Santa Terezinha,,,02450-000,SP,COMPETICIO,Al Afonso Schmidt 196 Sala12,55984
207,1,84010210,BR,RENTAL BRASIL LOCAÇÕES LTDA.,,,,SÃO PAULO,LIMÃO,,,02751-000,SP,RENTAL,RUA ANTONIO DE MORAES 362,55985
208,1,84010211,BR,UP JOB EXPRESS TRANSPORTES LTDA.,,,,SÃO PAULO,VILA GUARANI,,,04316-060,SP,UP JOB,RUA BICUDO DE BRITO 370,55999
209,1,84010212,BR,Mundo do Enxoval Eireli,,,,São Paulo,Brooklin,,,04578-903,SP,MUNDO DO E,Av Nações Unidas 12555,56009
210,1,84010213,BR,CHUBB SEGUROS BRASIL S.A,,,,SÃO PAULO,PINHEIROS,,,05402-920,SP,CHUBB,AV REBOUÇAS 3970 25 28,56017
211,1,84010214,BR,RBS-ZERO HORA EDITORA JORNALISTICA,,,,PORTO ALEGRE,AZENHA,,,90160-093,RS,RBS,AV IPIRANGA 1075,56049
212,1,84010215,BR,MOVIDA LOCAÇÃO DE VEICULOS,,,,SÃO PAULO,CAMPO BELO,,,04613-000,SP,MOVIDA,RUA OTÁVIO TARQUÍNIO DE SOUZA 23,56066
213,1,84010216,BR,GILBERTO ROBSON ALVES JUNIOR-ME,,,,SÃO PAULO,VILA MASCOTE,,,04363-000,SP,GILBERTO R,AV MASCOTE 385 AP 23,56135
214,1,84010217,BR,ALEXANDRE LIMA DA COSTA ME,,,,São Paulo,Itaquera,,,08275-001,SP,ALEXANDRE,AV Maria Luiza Americano 446,56146
215,1,84010218,BR,Porsche Consulting Ltda,,,,São Paulo,Vila São Francisco,,,04583-110,SP,PORSCHE CO,Av Dr Chucri Zaidan 1240 25and,56151
216,1,84010219,BR,PAULO EDUARDO CERA ME,,,,INDAIATUBA,TERRAS DE ITAICI,,,13341-633,SP,PAULO,RUA AGENIR MARTINHON SCACHETTI 169,56181
217,1,84010220,BR,DRAGON TEX COMERCIO E MANUTENCAO DE,EXTINTORES,,,SÃO PAULO,TERC DE INTERLAGOS,,,04809160,SP,DRAGON,AV PEDRO ROSCHEL GOTTZFRITZ 326,56223
218,1,84010221,BR,KARTODROMO ALDEIA DA SERRA LTDA.,,,,Barueri,ALDEIA DA SERRA,,,06423150,SP,KARTODROMO,AVENIDA DOUTOR YOJIRO 210,56237
219,1,84010222,BR,GRAHL´S BISTRÔ LANCHONETE E RESTAUR,Eireli ME,,,Barueri,ALDEIA DA SERRA,,,06428-000,SP,GRAHL´S,ESTRADA DOUTOR YOJIRO TA 210 SALA02,56238
220,1,84010223,BR,Associação Brasileira Esportiva Soc,e Cultural Endurance,,,Florianópolis,Itacorubi,,,88034050,SC,ASSOCIAÇÃO,Rua Prof. Ayrton Roberto 64 SL 308,56248
221,1,84010224,BR,RANDSTAD BRASIL RECURSOS HUMANOS LT,,,,São Paulo,BELA VISTA,,,01310-100,SP,RANDSTAD,Av Paulista 1048 11AND,56299
222,1,84010225,BR,OPPORTUNITY LOCAÇÕES DE EQUIPAMENTO,PARA EVENTOS LTDA,,,SÃO PAULO,CERQUEIRA CESAR,,,01422-001,SP,OPPORTUNIT,ALAMEDA FRANCA 1050 2 AND,56300
223,1,84010226,BR,OPPORTUNITY TRADUCOES E EDITORACAO,,,,São Paulo,CERQUEIRA CESAR,,,01422-001,SP,OPPORTUNIT,AL Franca 1050 2 AND,56301
224,1,84010227,BR,Secretaria da Fazenda de São Paulo,,,,São Paulo,Pinheiros,,,05420-000,SP,FAZENDA SÃ,Rua Butanta 260,56316
225,1,84010228,BR,Secretaria da Fazenda de Pernambuco,,,,Recife,Santo Antônio,,,50040-000,PE,FAZENDA PE,Rua do Imperador S/N,56317
226,1,84010229,BR,Secretaria da Fazenda do Rio Grande,Sul,,,PORTO ALEGRE,Centro,,,90020-024,RS,RIO GRANDE,Av Borges de Medeiros 521 s 11,56318
227,1,84010230,BR,Secretaria da Fazenda do Rio de Jan,,,,Rio de Janeiro,Centro,,,200071-001,RJ,FAZENDA DO,Av Pres. Vargas 670,56319
228,1,84010231,BR,Secretaria da Fazenda do Distrito,Federal,,,Brasilial,Asa Norte,,,70760-524,DF,FAZENDA DO,SEPN 513,56320
229,1,84010232,BR,Secretaria da Fazenda do Parana,,,,Curitiba,Centro,,,80420-010,PR,SECRETARIA,Av Vicente Machado 445,56321
230,1,84010233,BR,Secretaria da Fazenda de Santa Cata,,,,Florianópolis,Saco Grande II,,,88032-000,SC,SECRETARIA,Rod.SC 401 KM05,56322
231,1,84010234,BR,PATRICIA GOEDERT DOCARIA LTDA,,,,Florianópolis,SANTO ANTONIO DE LISBOA,,,88052-840,SC,PATRICIA G,RODOVIA JOSE CARLOS DAUX 6977,56341
232,1,84010235,BR,SUPER DRIVING EVENTOS LTDA-ME,,,,SÃO PAULO,VILA ANDRADE,,,05726-130,SP,SUPER DRIV,RUA JOSÉ DA SILVA IBEIRO 200 C 22B,56342
233,1,84010236,BR,SMS InfoComm Serviços e Gerenciamen,de Soluções de Tecnologia Ltda,,,Barueri,Jardim Santa Cecilia,,,06465-060,SP,SMS INFOCO,Avenida Piramboia 3654,56343
234,1,84010237,BR,JOYCE FERREIRA SORES SILVA-ME,,,,MOGI DAS CRUZES,JD MARICA,,,08775-420,SP,JOYCE,AV ANTONIO DE ALMEIDA 1791 S 9,56357
235,1,84010238,BR,Detran ES,,,,Vitória,Santa Luzia,,,29045-950,ES,DETRAN ES,Av Nossa Senhora da Penha 2270,56360
236,1,84010239,BR,Instituto Brasileiro do Meio Ambien,dos Recursos Naturais Renováveis -I,,,São Paulo,Jardins,,,01417-020,SP,IBAMA,Alameda Tietê 637,56362
237,1,84010240,BR,ORGAN DE EVENTOS FEST DE PROVENCE S,,,,SANTANA DE PARNAÍBA,ALPHAVILLE,,,06539-215,SP,ORGAN,RUA AL DAS ACACIAS 313,56363
238,1,84010241,BR,K&S LOCAÇÃO E MONTAGEM DE CENOGRAFI,E ESTANDES LTDA.,,,SÃO PAULO,VILA MARIA,,,02111-031,SP,K&S LOCAÇÃ,RUA ITAUNA 810,56419
239,1,84010242,BR,Diego Marcel Camargo Eireli ME,,,,Gravatai,Barnabé,,,94150-460,RS,FLEX LOG,Rua Vila Lobos 387,56420
240,1,84010243,BR,AVANTGARDE BRASIL COMUNICAO LTDA,,,,SÃO PAULO,CIDADE MONÇÕES,,,04575-020,SP,AVANTGARDE,RUA LUIGI GALVANI 146 CJ 71,56429
241,1,84010244,BR,KALUNGA COMERCIO E INDUSTRIA GRAFIC,LTDA,,,Barueri,JARDIM MARIA CRISTINA,,,06420-090,SP,KALUNGA,ROD PRESIDENTE CASTELO BRANCO 11350,56430
242,1,84010245,BR,MRH Veículos LTDA.,,,,Porto Alegre,Navegantes,,,91020-001,RS,MRH PORTO,Av Sertorio 1815,56443
243,1,84010246,BR,MRH Veículos LTDA.,Porsche Center Florianopolis,,,Florianópolis,Jardim Atlântico,,,88095-001,SC,MRH FLORIA,Av. Marinheiro Max Schramm 3901,56444
244,1,84010247,BR,MRH VEICULOS LTDA.,Porsche Center Campinas,,,Campinas,Nova Campinas,,,13092-123,SP,MRH CAMPIN,Av. Jose de Souza Campos 116,56445
245,1,84010248,BR,Lia & Annette Indústria e Comércio,,,,Rio de Janeiro,Itanhangá,,,22753-005,RJ,PBR_PC RIO,Estrada do Itanhangá 1079,56446
246,1,84010249,BR,PM 2.0 SOLUÇÕES EM PROJETOS,,,,SÃO PAULO,VILA MARIANA,,,04012-000,SP,PM 2.0,RUA PELOTAS 209 AP 92A,56457
247,1,84010250,BR,MRH Veículos LTDA.,,,,Rio de Janeiro,Barra da Tijuca,,,22631-000,RJ,MRH RIO DE,Av. das Américas 555,56458
248,1,84010251,BR,PREFEITURA MUNICIPAL DE CARIACICA,,,,CARIACICA,ALTO LAGE,,,29151-026,ES,PREFEITURA,RODOVIA BR 262 KM 3.0,56477
249,1,84010252,BR,PREFEITURA DA CIDADE DO RIO DE JANE,,,,Rio de Janeiro,Meier,,,20720-292,RJ,PREFEITURA,RUA Aquidabã 1037,56478
250,1,84010253,BR,PREFEITURA DA Cidade de São Paulo,,,,São Paulo,Centro,,,01002-020,SP,PREFEITURA,Viaduto do Cha 15,56479
251,1,84010254,BR,SANTA PROMO MARKEING PROMOCIONAL LT,,,,Florianópolis,ITACORUBI,,,88034-050,SC,SANTA PROM,RUA PROF AYRTON ROBERTO DE OLIV 801,56564
252,1,84010255,BR,ANDERSON FAGUNDES DIOGO -ME,,,,SOROCABA,REGIÃO NORTE,,,18010-199,SP,ANDERSO,RUA COMENDADOR OETTERER 1336 SA1,56576
253,1,84010256,BR,TAGS TRANSLATIONS-TRADUCOES E,INTERPRETACOES LTDA-EPP,,,VILA ARICANDUVA,VILA ARICANDUVA,,,03527-000,SP,TAGS,AV ARICANDUVA 2529,56599
254,1,84010257,BR,FENIX LOCACAO DE MONT E CENOGRAFIAS,EIRELLI,,,OSASCO,VILA MENCK,,,06268-110,SP,FENIX,AV LOURENCO BELLOLI 1539,56612
255,1,84010258,BR,HAYS RECRUTAMENTO E SELECAO LTDA,,,,SÃO PAULO,VILA OLIMPIA,,,04552-060,SP,HAYS,RUA PEQUETITA 215,56671
256,1,84010259,BR,GLAMURAMA EDITORA LTDA,,,,SAO PAULO,JARDIM EUROPA,,,04536-050,SP,GLAMURAMA,RUA EMANUEL KANT 39,56673
257,1,84010260,BR,ATS AUTO PECAS LTDA,,,,SÃO PAULO,SANTO AMARO,,,04703-003,SP,ATS AUTO P,AV MORUMBI 7826,56687
258,1,84010261,BR,*,DEVELOPMENT SYSTEMS DO BRASIL,,,SAO PAULO,BROOKLIN NOVO,,,04571-090,SP,DEVELOPMEN,R SANSAO ALVES DOS SANTOS 433,56689
259,1,84010262,BR,*,DEVELOPMENT SYSTEMS DO BRASIL,,,SAO PAULO,BROOKLIN NOVO,,,04571-090,SP,DEVELOPMEN,R SANSAO ALVES DOS SANTOS 433,56690
260,1,84010263,BR,TELCABOS-TELECOMUNICACAO E INFORMAT,LTDA,,,SÃO PAULO,BOM RETIRO,,,01132-000,SP,TELCABOS,RUA VISCONDE DE TAUNAY 711,56729
261,1,84010264,BR,MCZ INFROMAÇÃO E INTERNET EIRELI-ME,,,,SÃO PAULO,JARDIM PAULISTA,,,01433-050,SP,MCZ,RUA DOUTOR SAMPIO FERRAZ 81,56768
262,1,84010265,BR,PANDA MATERIAIS ELETRICOS LTDA,,,,São Paulo,VILA MASCOTE,,,04378-000,SP,PANDA MATE,AV SANTA CATARINA 1320,56775
263,1,84010266,BR,GEOGRAPH INFORMATICA E SERVIÇOS LTD,,,,SÃO PAULO,VILA OLIMPIA,,,04552-050,SP,GEOGRAPH,RUA HELENA 140 9 ANDA,56776
264,1,84010267,BR,BSS SERVIÇOS DE BLINDAGEM LTDA,,,,São Paulo,JAGUARE,,,05345-040,SP,BSS SERVIÇ,RUA STO EURILO 136,56810
265,1,84010268,BR,VIA VAREJO S/A,,,,CARIACICA,Campo Grande,,,29146-201,ES,VIA VAREJO,Av Expedito Garcia 147,56856
266,1,84010269,BR,AVALARA BRASIL- ASSESSORIA E CONSUL,,,,SÃO PAULO,SANTO AMARO,,,04709-110,SP,AVALARA BR,RUA HENRI DUNANT 137 CONJ 1,56879
267,1,84010270,BR,CRV LAVANDERIA LTDA.,,,,SÃO PAULO,CHACARA SANTO ANTONIO,,,04717-002,SP,CRV LAVAND,RUA ALEXANDRE DUMAS 1102 LOJA,56972
268,1,84010271,BR,BRINCAL COM. DE BRINDES E CALENDARI,LTDA,,,SÃO PAULO,LUZ,,,01107-010,SP,BRINCAL,RUA LUIS PACHECO 107,57013
269,1,84010272,BR,AD. AGENCY PUBLICIDADE E MARKETING,,,,São Paulo,SÃO PAULO,,,04551-010,SP,AD.AGENCY,RUA FIDENCIO RAMOS 302,57016
270,1,84010273,BR,BNB Serviços LTDA ME,,,,São Paulo,Perdizes,,,05016000,SP,BNB,Rua Iperoig 36,57017
271,1,84010274,BR,KPMG Auditores Independentes,,,,São Paulo,Vila São Francisco,,,04711904,SP,KPMG,Rua Arquiteto Olavo Redig de Ca 105,57035
272,1,84010275,BR,ZZI Servicos e Comercio LTDA EPP,Neocom,,,Brasilia,Asa Sul,,,70340907,DF,NEOCOM,"SRTVS 701 Conjunto D 280, Sala 633",57072
273,1,84010276,BR,Merchant Cobranças Ltda,,,,São Paulo],Bela Vista,,,04583110,SP,MERCHANT,Av Paulista 807,57073
274,1,84010277,BR,MELIA BRASIL ADM HOT COMERCIAL,,,,SAO PAULO,INDIANOPOLIS,,,04028002,SP,MELIA,AV. IBIRAPUERA 2534,57158
275,1,84010278,BR,LIAME ASSOCIACAO DE APOIO A CULTURA,,,,RIO DE JANEIRO,SAL 408 - TIJUCA,,,20270004,RJ,LIAME,RUA MARIZ E BARROS 1001,57159
276,1,84010279,BR,Editora Maestro LTDA ME,,,,Jundiai,Chacara Malota,,,13211517,SP,EDITORA MA,Rua do Maracujá 49,57188
277,1,84010280,BR,Matheus Define Assessoria e Consult,Ltda,,,São Paulo,Centro,,,01034010,SP,MATHEUS,LG do Paicandu 51,57235
278,1,84010281,BR,Tradinter Logistica de Eventos Ltda,,,,São Paulo,Vila Buarque,,,01226030,SP,TRADINTER,"Rua Barão de Tatui 517, Ap 83",57238
279,1,84010285,BR,Frigo Com SP Alim e Bebidas Ltda,,,,SAO PAULO,Taboa da Serra,,,06755090,SP,FRIGO,Rua Ana Maria da Conceicao 189,57382
280,1,84010286,BR,Fperez Servicos de Alim e Rest Ltda,,,,SAO PAULO,INDIANOPOLIS,,,04028002,SP,FPEREZ,Avenida Ibirapuera 2534,57383
281,1,84010287,BR,HOTELARIA ACCORINVEST BRASIL SA,,,,SAO PAULO,Vila Olimpia,,,04551000,SP,ACCOR,Rua Olimpiadas 205,57384
282,1,84010288,BR,CBB FARIA LIMA ADM HOTEL E COM LTDA,,,,Sao Paulo,Vila Olimpia,,,04551000,SP,CBB,Rua Olimpiadas 205,57385
283,1,84010289,BR,Vibe Produções Artísticas e Eventos,,,,Baueri,Alphaville Centro Industrial e Empr,,,06454010,SP,VIBE,"Alameda Madeira, 258 CJ 301",57425
284,1,84010290,BR,B. Blend Maquinas e Bebidas S.A.,,,,Sao Paulo,Conj 52 %o. andar,,,04551000,SP,B BLEND,Rua Olimpiadas 66,57453
285,1,84010291,BR,CADASTRO INATIVO,,,,São Paulo,Butanta,,,05630130,SP,CINTIA YUR,"Rua Prof J J Meirelles T 806, Ap 13",57503
286,1,84010292,BR,São Paulo Golf Club,,,,SAO PAULO,Sao Paulo,,,04745050,SP,GOLF CLUB,Praça Dom Francisco de Souza 540,57540
287,1,84010293,BR,Emanuel Martins Coelho - ME,,,,Cariacica,Campo Grande,,,29146170,ES,EMANUEL,Rua Eliaas Assef 29,57586
288,1,84010294,BR,Eletroportseg Comércio e Distribuid,,,,São Paulo,Jardim Aeroporto,,,04630032,SP,ELETROPORT,Rua Carlos Pinto Alves 189,57616
289,1,84010295,BR,Secretaria de Estado da fazenda,,,,Espirito Santo,Ed. Aureliano Hoffman - Centro,,,290100002,ES,SECRETARIA,Av Jeromino Monteiro 96,57665
290,1,84010296,BR,NUCLEO DE INFORMACAO E COORD.,,,,São Paulo,Brooklin,,,04578-000,SP,NIC.BR,Avenida das Nações Unidas 11541,57699
291,1,84010297,BR,Editora Globo S/A,,,,RIO DE JANEIRO,CENTRO,,,20230-240,RJ,EDITORA GL,RUA MAR DE POMPAL 25,57700
292,1,84010298,BR,DEVELOPMENT SYSTEMS DO BRASIL SOCIE,LTDA,,,São Paulo,Cidade Monções,,,04583110,SP,DEVELOPMEN,"Av Eng Luiz Carlos 105, Cj 709-711",57736
293,1,84010299,BR,Hotel Americas Barra Ltda,,,,Rio de Janeiro,Barra da Tijuca,,,22793082,RJ,HOTEL AMER,Av. das Americas 10500,57822
294,1,84010300,BR,Aduaneiras Informatica Ltda,,,,São Paulo,Consolacao,,,01301000,SP,ADUANEIRAS,"Rua da Consolacao 77, CJ 31",57876
295,1,84010301,BR,R1 Solutions Eventos Eireli-ME,,,,Sao Paulo,Sao Paulo,,,04193250,SP,R1,Rua Francesco Verdi 59,57889
296,1,84010302,BR,Flows Conhec e Comunição Ltda ME,,,,Florianópolis,Saco Grande,,,88032-005,SC,FLOWS,"Jose Carlos Daux 4150, Sala 01/02",57892
297,1,84010303,BR,Nolandis Empreend. e Particip. LTDA,,,,Bahia,Mata de São João,,,48280000,BA,NOLANDIS,"Rod. BA-099 , Km 56 S/N",57900
298,1,84010304,BR,HP Brasil Industria e Comércio de E,,,,Barueri,Alphaville,,,06455-030,SP,HP BRASIL,Alameda Xingu 350,57910
299,1,84010305,BR,Leonardo Reback,,,,São Paulo,Vila São Francisco,,,04583110,SP,LEONARDO,Av Dr. Chucri Zaidan 1240,57920
300,1,84010306,BR,Tegma Logistica Integrada S/A,,,,Cariacica,Padre Mathias,,,29157100,ES,TEGMA,Rod. Governador Mário Covas 882,57981
301,1,84010307,BR,Dener Motorsport Produções Ltda,,,,São Paulo,Jurubatuba,,,04696000,SP,DENER,Av. Engenheiro Eusébio Stevaux 1518,57992
302,1,84010308,BR,Ali Produções e Comércio de Vídeos,,,,São Paulo,Vila Ester,,,02454-000,SP,ALI,R Maria urupaiti 441,57996
303,1,84010309,BR,Elograf Editora Grafica e Fotolito,,,,São Paulo,Jardim Ipanema,,,05187010,SP,ELOGRAF,Av. Alexios Jafet 959,58041
304,1,84010310,BR,J.J Tecnologia e Manut. em Comp. Ei,,,,São Paulo,São Bernado do Campo,,,09750000,SP,J.J TECNOL,Aven. Sen. Vergueiro 823,58142
305,1,84010311,BR,Molen Planten hidrocultura Ltda - M,,,,São Paulo,Jundiai,,,13215020,SP,MOLEN,R Carlos Gomes 749,58157
306,1,84010312,BR,MRH Veiculos Ltda,Porsche Center Rio de Janeiro,,,Rio de Janeiro,Barra da Tijuca,,,22793082,RJ,MRH RIO DE,"Av. das Américas, 10585",58175
307,1,84010313,BR,CPR Lavanderia LTDA EPP,,,,São Paulo,São Paulo,,,04719001,SP,CPR LAVAND,R Verbo Divino 986,58180
308,1,84010314,BR,Hotel Americas Barra LTDA,,,,Rio de Janeiro,Barra da Tijuca,,,22640100,RJ,HOTEL AMER,Av. das Americas 10500,58256
309,1,84010315,BR,Marshal Serviços de Apoio Administr,,,,São Paulo,Santana,,,02016001,SP,MARSHAL SE,Rua Salete 201,58318
310,1,84010316,BR,Serasa S.A,,,,São Paulo,São Carlos,,,13571385,SP,SERASA S.A,Av. Doutor Heitor Jose Reali 360,58319
311,1,84010317,BR,Apple Computer Brasil Ltda,,,,São Paulo,Vila Gertrudes,,,04707970,SP,APPLE COMP,Av Roque Petroni Jr 1089,58366
312,1,84010318,BR,Kalunga Com. e Ind. Gráfica Ltda,,,,São Paulo,Vila Cordeiro,,,04583903,SP,KALUNGA CO,Av. Doutor Chucri Zaidan 902,58367
313,1,84010319,BR,Porsche Brasil Importadora,de Veiculos Ltda.,,,Embu das Artes,Chacaras Bartira,,,06845-070,SP,PBR IMP,"Estrada Dona Maria 1481, Mod 7 P A",58403
314,1,84010320,BR,DEKRA Vistorias e Serviços Ltda,,,,São Paulo,Atibaia,,,12944000,SP,DEKRA,Av. Gerônimo de Camargo 2000,58466
315,1,84010321,BR,CADASTRO INATIVO,,,,São Paulo,Embu,,,06845070,SP,KUEHNE,Est. Dona Maria Jose Ferraz Pr 1481,58467
316,1,84010322,BR,Patio Comercio de Veiculos Ltda,,,,São Paulo,Araras,,,13604000,SP,PATIO MOTO,Av. Dona Renata 2934,58475
317,1,84010323,BR,CADASTRO INATIVO,,,,São Paulo,São Bernado do Campo,,,09842080,SP,TRANS-DI T,Estrada Galvão Bueno 7620,58477
318,1,84010324,BR,Eurobike Brasilia,VSTM Comercio de Veiculos Ltda,,,Brasilia,Zona Industrial (Guara),,,71215-100,DF,PC EUROBIK,ST SGCV LOTE 09 LOJA 25 E 26 S/N,58504
319,1,84010325,BR,Shift Mobilidde Corporativa e,Agenciamen Ltda,,,São Paulo,São Paulo,,,05524020,SP,SHIFT MOBI,R Sta Crescencia 178,58530
320,1,84010326,BR,Fernando Torres Faria,,,,São Paulo,São Paulo,,,01408000,SP,FERNANCO T,Al Casa Branca 1204,58583
321,1,84010327,BR,Ana Carolina Alves Wanderley,,,,São Paulo,São Paulo,,,05416000,SP,ANA CAROLI,R fradique Coutinho 66,58620
322,1,84010330,BR,Prefeitura Municipal de São Paulo,,,,São Paulo,São Paulo,,,01002020,SP,PREFEITURA,Vd do Cha 15,58694
323,1,84010331,BR,Correa Porto Sociedade de Advogados,,,,São Paulo,São Paulo,,,04583110,SP,CORREA POR,Av. Paulista 726,58821
324,1,84010332,BR,SGCJ Comercio de Produtos Alimentic,LTDA - EPP,,,São Paulo,São Paulo,,,04711130,SP,SGCL COMER,Av. Doutor Chucri Zaidan 1240,58847
325,1,84010333,BR,Assurange Serviços de Tradução,,,,São Paulo,São Paulo,,,05724003,SP,ASSURANGE,Av. Giovanni Gronchi 1013,58925
326,1,84010334,BR,Agencia Race de Comunicação e Marke,,,,São Paulo,São Paulo,,,0401000,SP,AGENCIA RA,R. Vergueiro 1421,58926
327,1,84010335,BR,Brincal Com. de Brindes e Calendari,,,,s~,São Paulo,,,01107010,SP,BRINCAL CO,R. Luis Pachaco 99,58927
328,1,84010336,BR,Secretaria da Receita Federal do Br,,,,São Paulo,São Paulo,,,70310500,SP,SECRETARIA,ESP dos Ministerios Bloco 05,58936
329,1,84010337,BR,Az Comercio de Eletronicos e Serviç,,,,São Paulo,São Paulo,,,01441000,SP,AZ COMERCI,Al Gabriel Monteiro da Silva 135,58937
330,1,84010338,BR,Chico Frutas Morumbi Ltda,,,,São Paulo,São Paulo,,,1151817123,SP,CHICO FRUT,R. Joerg Bruder 183,59026
331,1,84010339,BR,Pirelli Comecial de Pneus Brasil Lt,,,,São Paulo,Barueri,,,06421300,SP,PIRELLI,Rod Presidente Castelo Branco 11660,59142
332,1,84010340,BR,Systax Sistemas Fiscais Ltda,,,,São Paulo,São Palo,,,01310200,SP,SYSTAX,Av. Paulista 1776,59148
333,1,84010341,BR,Hello Research Ltda ME,,,,São Paulo,São Palo,,,01441010,SP,HELLO,R Raggio Nobrega 55,59149
334,1,84010342,BR,SSDI Conquistar Treinamento Ltda,,,,São Paulo,São Paulo,,,04536070,SP,SSDI,R Manuel Guedes 504,59150
335,1,84010343,BR,Mistar Comercio de Alimentos e Bebi,Utencilios Domesticos,,,São Paulo,São Paulo,,,04512001,SP,MITAR COME,Rua Diogo Jacome 475,59158
336,1,84010344,BR,Sunflower Agencia de Viagens,,,,São Paulo,São Paulo,,,04664020,SP,SUNFLOWER,Av. Ministro Alvaro de Souza Li 200,59210
337,1,84010345,BR,Sociedade Hípica Paulista,,,,São Paulo,São Paulo,,,04569010,SP,SOCIEDADE,R Quintana 206,59222
338,1,84010346,BR,Eduardo Pires dos Santos Lucon Me,,,,São Paulo,São Paulo,,,04621001,SP,EDUARDO PI,Joaquim Nabuco 200,59237
339,1,84010347,BR,Just Traducoes S.S Ltda,,,,São Paulo,São Paulo,,,01309020,SP,JUST TRADU,R Matias Aires 402,59463
340,1,84010348,BR,Valid Certificadora Digital Ltda,,,,São Paulo,São Pailo,,,01310100,SP,VALID CERT,Av Paulista 1000,59496
341,1,84010349,BR,BrenNo Henrique Carvalho de Arantes,,,,São Paulo,São Paulo,,,04716003,SP,BRENO HENR,Rua Fernandes Moreira 1500,59678
342,1,84010350,BR,Ronaldo Correa Lopes Antonuzzi,,,,São Paulo,São Paulo,,,02468090,SP,RONALDO CO,Rua Neco Nunes 184,59679
343,1,84010351,BR,Magazine Luiza S/A,,,,São Paulo,São Paulo,,,14400660,SP,MAGAZINE L,Rua Voluntários da Franca 1465,59680
344,1,84010355,BR,Caixa Economica Federal,,,,Brasilia,Brasilia,,,70092900,DF,CAIXA ECON,SBS Quadra 4 Bloco A lote 3/4,59755
345,1,84010356,BR,MINISTERIO DA FAZENDA,,,,Brasilia,Brasilia,,,70048900,DF,MINISTERIO,ESP dos Ministerios Bloco P 5.andar,59756
346,1,84010357,BR,Municipio de Embu das Artes,,,,Embu das Artes,Embu das Artes,,,06803900,SP,MUNICIPIO,R Andronico dos Prazeres Goncal 114,59777
347,1,84010358,BR,Sind Dos Concessionarios e Distr de,,,,São Paulo,São Paulo,,,04063003,SP,SIND DOS C,Av Indianopolis 1967,59778
348,1,84010359,BR,KPMG Assessores Ltda,,,,São Paulo,São Paulo,,,04711904,SP,KPMG,R Arquiteto Olavo Redig de Camp 105,59791
349,1,84010360,BR,Beach Hotel Maresias,,,,São Sebastião,São Sebastião,,,11628115,SP,BEACH HOTE,Avenida Francisco Loup 1109,59803
350,1,84010365,BR,Rubem Garcia,,,,São Paulo,São Paulo,,,01510000,SP,RUBEM,R da Gloria 168,59977
351,1,84010366,BR,Azevedo Serviços e Treinamento Limi,,,,São Paulo,São Paulo,,,08295001,SP,AZEVEDO SE,Av. Itaquera 8261,59978
352,1,84010367,BR,Rafael costa Piovesan,,,,São Paulo,São Paulo,,,05429040,SP,RAFAEL COS,R Vupabussu 91,81328
353,1,84010368,BR,Rodl & Partner Consultores Ltda,,,,São Paulo,São Paulo,,,04559000,SP,ROLD & PAR,Av. Portugal 38,81336
354,1,84010369,BR,Banco Itaucard S.A,,,,São Paulo,Poa,,,08557105,SP,BANCO ITAU,Alameda Pedro Calil 43,81361
355,1,84010370,BR,Associação Brasileira de Veiculo El,,,,São Paulo,São Paulo,,,04612002,SP,ASSOCIAÇÃO,Rua Baronesa de Bela Vista 675,81362
356,1,84010371,BR,Park Idiomas Franchising Ltda,,,,Minas Gerais,Minas Gerais,,,3840050,MG,PARKK IDIO,Avendia Governador Rondon 4175,81363
357,1,84010372,BR,Recanto dos bolos Ltda,,,,São Paulo,São Paulo,,,04615001,SP,RECANTO DO,R Doutor Jesuino Maciel 664,81364
358,1,84010373,BR,Brazil Translations & Solutions Tra,,,,São Paulo,São Paulo,,,01001001,SP,BRAZIL TRA,Pc da Se 1101,81394
359,1,84010374,BR,Targetware Informatica Ltda,,,,São Paulo,são Paulo,,,05001000,SP,TARGETWARE,Avenida Francisco Matarazo 404,81395
360,1,84010375,BR,Office W Comercio e Importação,,,,São Paulo,São Paulo,,,04157020,SP,OFFICE W,R Luiz da Costa Ramos 408,81396
361,1,84010376,BR,Fabricio Barbosa Lima,,,,São Paulo,São Paulo,,,11628115,SP,FABRICIO B,Av. Doutor Francisco Loup 500,81401
362,1,84010377,BR,Thiago Koch Turri,,,,São Sebastião,São Sebastião,,,11600000,SP,THIAGO KOC,Rua Silverio Antonio dos Santos 11,81402
363,1,84010378,BR,Delicius Eventos,,,,São Paulo,São Paulo,,,04719002,SP,DELICIUS E,Rua Verbo divino 1075,81405
364,1,84010379,BR,Pricewaterhousecoopers Contadores P,,,,Salvador,Salvador,,,41820020,BA,PWC PRICEW,Av. Tancredo Neves 620,81426
365,1,84010380,BR,MRH Veiculos LTDA,,,,São Paulo,Ribeirao Preto,,,14021630,SP,MHR VEICUL,Av. Wladimir Meirelles Ferreira,81430
366,1,84010381,BR,Overlap Consultores em Marketing e,,,,São Paulo,São Paulo,,,01414200,SP,OVERLAP CO,Al Santos 2326,81432
367,1,84010382,BR,Ernst & Young Auditores Independede,,,,São Paulo,São Paulo,,,04543907,SP,ERNST & YO,Av. Presidente Juscelino Kubit 1909,81480
368,1,84010383,BR,Josue Francisco Alves,,,,São Paulo,São Paulo,,,04427020,SP,JOSUE FRAN,R. Carlos Facchina 533,81481
369,1,84010384,BR,Pronto socorro Industria e Comercio,,,,São Paulo,São Paulo,,,27812549,SP,PRONTO SOC,R. Divino das Laranjeiras 175,81503
370,1,84010385,BR,Empresa Municipal de Desenvolviment,,,,Campinas,Campinas,,,13035270,SP,EMPRESA MU,R. DR Salles Oliveira 1028,81504
371,1,84010386,BR,Pronto Socorro Industria e Comercio,de Vidros Ltda,,,São Paulo,São Paulo,,,04709111,SP,PRONTO SOC,Rua Henri Dunent 862,81581
372,1,84010387,BR,Agis Equip. E Serv. Informatica Ltd,,,,Serra,Serra,,,29167650,ES,AGIS EQUIP,R SAmuel Meira Brasil 394,81663
373,1,84010388,BR,NGO - Associados Corretora de Cambi,,,,São Paulo,São Paulo,,,01010010,SP,NGO - ASSO,PC Antonio Prado,81670
374,1,84010389,BR,Tailor Made Editora Eireli- Me,,,,São Paulo,São Paulo,,,01403000,SP,TAILOR MAD,Alameda Joaquim Eugenio de Lima 696,81671
375,1,84010390,BR,Faqui Segurança e Vigilancia Ltda,,,,São Paulo,São Paulo,,,01246020,SP,FAQUI,R Capivari 171,81672
376,1,84010391,BR,Car Brasil Editora Ltda,,,,São Paulo,São Paulo,,,05615190,SP,CAR BRASIL,R Tres Irmaos m 62,81673
377,1,84010392,BR,De Goeye Advogados Associados,,,,São Paulo,São Paulo,,,01420002,SP,DE GOEYE,Al Jau 1754,81699
378,1,84010393,BR,Isadora da Silva Tavares de Leon,,,,São Paulo,São Paulo,,,05416000,SP,ISADORA DA,R Fradique Coutinho 66,81759
379,1,84010394,BR,Pottencial Seguradora S.A,,,,Brasilia,Belo Horizonte,,,70310500,MG,POTTENCIAL,Av. Raja Gabaglia 1143,81775
380,1,84010395,BR,Digicad Treinamento em Tecnologia e,,,,São Bernado do Campo,São Bernado do Campo,,,09750660,SP,DIGICAD TR,Av. Lucas Nogueira Garcez 990,81910
381,1,84010396,BR,Secretaria de Estado da Fazenda,,,,Vitoria,Vitoria,,,29050375,ES,SECRETARIA,Av Joao Baptista Parra 600,81967
382,1,84010397,BR,Ricardo Gastal Soruco,,,,Rio Grande do Sul,Porto Aegre,,,90460110,SC,RICARDO GA,Rua Legeado 1256,81994
383,1,84010398,BR,Fast Shop S.A,,,,São Paulo,Carandiru,,,02029001,SP,FAST SHOP,Av. Zaki Narchi 1664,82103
384,1,84010399,BR,Volta Redonda Cartório do 1º Ofício,,,,Rio de Janeiro,Volta Redonda,,,27123320,RJ,VOLTA REDO,R Vereador Luiz da Fonseca Guim 149,82178
385,1,84010400,BR,Fast Shop S.A,,,,CAJAMAR,EMPRESARIAL GATO PRETO,,,03575030,SP,FAST SHOP,"ROD ANHANGUERA S/N, km37",82266
386,1,84010401,BR,Focus Edicões Ltda Me,,,,São Paulo,São Paulo,,,02715000,SP,FOCUS EDIC,Av. Nossa Sra do O 865,82345
387,1,84010402,BR,Tribunal de Justiça do Estado do RJ,,,,Rio de Janeiro,Rio de Janeiro,,,20020000,RJ,TRIBUNAL D,Av. Erasmo Braga 115,82465
388,1,84010403,BR,Wilson Ferreira dos Santos,,,,São Paulo,São Paulo,,,05854180,SP,WILSON FER,R Matteo Raverti 276,82513
389,1,84010404,BR,Flexform Industria e Comercio de Mo,,,,São Paulo,Guarulhos,,,07170350,SP,FLEXFORM I,Av. Papa Joao I 1849,82514
390,1,84010405,BR,Cotidiano Restaurante Ltda,,,,São Paulo,São Paulo,,,04537081,SP,COTIDIANO,R Comendador M. Calfat 348,82560
391,1,84010406,BR,Apple Computer Brasil Ltda,,,,São Paulo,São Paulo,,,04542000,SP,APPLE COMP,R Leopoldo Couto Magalhaes Juni 700,82573
392,1,84010407,BR,Ot Serviços de Tradução Eireli,,,,São Paulo,São Paulo,,,02242-040,SP,OT SERVIÇO,R Borges Ladario 95,82633
393,1,84010408,BR,Ciência e Saude - Medicina Diagnóst,,,,São Paulo,São Paulo,,,01452001,SP,CIÊNCIA E,Av. Brigadeiro Faria Lima 1993,82650
394,1,84010409,BR,Serviço Federal de Processamento de,,,,Brasilia,Asa Norte,,,70836900,DF,SEPRO,Av. L2 Sgan 601,82651
395,1,84010410,BR,Apple Computer Brasil Ltda,,,,Jundiai,Fazenda Grande,,,13213086,SP,APPLE COMP,Rod. Vl Pref. Hermeneg. Tonoll 1500,82652
396,1,84010411,BR,Netza Promocoes e Eventos Ltda,,,,Sao Paulo,São Paulo,,,04583110,SP,NETZA PROM,R Fidencio Ramos 195,82693
397,1,84010412,BR,Deloitte Touche Tohmatsu Consultore,,,,Sao Paulo,Sao Paulo,,,04583110,SP,DELOITTE T,Av Doutor Chucri Zaidan 1240,82702
398,1,84010413,BR,Tk Logistica do Brasil Ltda,,,,Salto,Sao Paulo,,,13329-400,SP,TK LOGISTI,Rod Engenheiro Ermenio de Oliv 1800,82779
399,1,84010414,BR,TRT 2A REGIAO,TRIBUNAL REGIONAL DO TRABALHO DA 2A,,,SAO PAULO,CONSOLACAO,,,01302-906,SP,TRT 2A REG,R DA CONSOLACAO 1272,82830
400,1,84010415,BR,Volkswagen do Brasil Industria de,Veiculos Automotores Ltda,,,Campo Belo,São Paulo,,,04626000,SP,VOLKSWAGEN,Av. Washington Luis 4984,82877
401,1,84010416,BR,COTTON FIBRA IND. E COM. LTDA,,,,BLUMENAL,ESCOLA AGRICOLA,,,89037-500,SC,COTTON,RUA BENJAMIN CONSTANT 1492,83033
402,1,84010417,BR,R2 FLATS EMPREENDIMENTOS IMOBILIARI,,,,SAO PAULO,INDIANOPOLIS,,,04080-001,SP,R2 FLATS,AV JANDIRA 257,83050
403,1,84010418,BR,Uniao Educacional e Tecnologia Impa,,,,Sao Paulo,Sao Paulo,,,01311100,SP,IMPACTA,Av Paulista 01009,83093
404,1,84010419,BR,Ag Print Comercio e Servicos Grafic,,,,Sao Paulo,Sao Paulo,,,05501010,SP,AG PRINT,R. Agostinho Cantu 81,83110
405,1,84010420,BR,57 GRAFICA EIRELI,,,,CAMPINAS,JARDIM DO LAGO II,,,13051-030,SP,57 GRAFICA,RUA JOVELINO APARECIDO MIGUEL 10,83136
406,1,84010421,BR,Inter Despachos s/s LTDA,,,,Sao Paulo,São Paulo,,,04545010,SP,INTER DESP,R. Aleixo Garcia 00096,83219
407,1,84010422,BR,My Way Comunicação Ltda.,,,,Santo André,Valparaiso,,,09060-001,SP,MY WAY,AV. Atlântica 954,83289
408,1,84010423,BR,Veolia Serviços Ambientais,,,,Sao Paulo,Sao Paulo,,,06408040,SP,VEOLIA,rua macatuba 174,83290
409,1,84010424,BR,Oficina do Chocolate Ind e Com,,,,Sao Paulo,Sao Paulo,,,05.705-240,SP,OFICINA DO,Rua Itapacurai 36,83291
410,1,84010425,BR,GT3 CUP EVENTOS ESPORTIVOS LTDA,,,,SAO PAULO,JURUBATUBA,,,04696-000,SP,GT3 CUP,AV ENGENHEIRO EUSEBIO STEVAUX 1518,83400
411,1,84010426,BR,TELEFONICA BRASIL S/A,,,,GUARULHOS,VARZEA DO PALACIO,,,07034-010,SP,VIVO,ROD PRESIDENTE DUTRA S/N,83462
412,1,84010427,BR,MY WAY COMUNICACAO LTDA,,,,SANTO ANDRE,VILA VALPARAISO,,,09060-001,SP,MY WAY,"AV AVENIDA ATLANTICA 954, SALA 5",83498
413,1,84010428,BR,AUTOROLA INTERMEDIARIA DE VENDAS ON,,,,Sao Paulo,JARDIM PAULISTANO,,,01451-000,SP,AUTOROLA,AV BRIGADEIRO FARIA LIMA 2128,83499
414,1,84010429,BR,10COMPLIK SERVICOS DE APOIO ADMINIS,,,,SAO PAULO,VILA RE,,,03669-040,SP,10COMPLIK,AV ANTONIO DIOGO 444,83542
415,1,84010431,BR,NOBILE GESTAO DE EMPREENDIMENTOS,LTDA SCP 002,,,RIBEIRAO PRETO,JARDIM BOTANICO,,,14021-630,SP,WYNDHAM GA,AV WLADIMIR MEIRELLES FERREIRA 856,83579
416,1,84010432,BR,DEZCOLADO COMUNICACAO VISUAL LTDA,,,,Sao Paulo,INDIANOPOLIS,,,04084-006,SP,DEZCOLADO,AV MIRUNA 1652,83658
417,1,84010433,BR,ECONET EDITORA EMPRESARIAL LTDA,,,,CURITIBA,BACACHERI,,,82510-230,PR,ECONET,R GAGO COUTINHO 541,83667
418,1,84010434,BR,PAULO FERNANDO FRANCA DOS SANTOS,,,,Sao Paulo,CONJUNTO PROMORAR SAPOPEMBA,,,03.929-150,SP,PAULO FERN,R GENERAL EURYALE DE JESUS ZERB 339,83676
419,1,84010435,BR,CASA AMARELA ESPAÇO DE CONVIVENCIA,,,,Sao Paulo,Jardim Paulista,,,01423-002,SP,CASA AMARE,Rua jose maria lisboa 00838,83692
420,1,84010436,BR,NET WORTH LEGACY - CONSULTORIA E TR,,,,SAO PAULO,JARDIM PAULISTA,,,04503-010,SP,NET WORTH,R BENTO DE ANDRADE 127,83781
421,1,84010437,BR,PESO G LOCACOES DE GUINDASTES E EQU,,,,SAO PAULO,VILA SANTA CATARINA,,,04370-030,SP,PESO G LOC,RUA DAS CAVAS 345,83785
422,1,84010438,BR,TNS SERVICOS DE PESQUISA DE MERCADO,,,,SAO PAULO,AGUA BRANCA,,,05001-100,SP,TNS SERVIC,"AV FRANCISCO MATARAZZ 1350, ANDAR 5",83797
423,1,84010439,BR,NET WORTH LEGACY - CONSULTORIA,E TREINAMENTOS EIRELI,,,SAO PAULO,JARDIM PAULISTA,,,04503-010,SP,NET WORTH,R BENTO DE ANDRADE 127,83858
424,1,84010440,BR,SAMHWA ELETROELETRONICA LTDA,,,,SAO PAULO,VILA CLEMENTINO,,,04041-054,SP,SAMHWA,AVENIDA ONZE DE JUNHO 1245,83871
425,1,84010441,BR,EASY SR SERVICOS EIRELI,,,,Sao Paulo,BELA VISTA,,,01311200,SP,EASY SR,PAULISTA 1439,83933
426,1,84010442,BR,BLANES CONSULTORIA AUTOMOTIVA LTDA,,,,SAO PAULO,VILA BERTIOGA,,,03187-040,SP,BLANES CON,R MOGI MIRIM 00195,83943
427,1,84010443,BR,NOVA EUROPAMOTORS COMERCIO,DE VEICULOS LTDA,,,CAMPINAS,DISTRITO DE SOUSA VILA SONIA,,,13105-055,SP,NOVA EUROP,R ANTONIO JOSE FELTRIN 100,83945
428,1,84010444,BR,PHORON DO BRASIL CONSULTORIA E SERV,,,,VINHEDO,JARDIM JUNCO,,,13.280-000,SP,PHORON DO,R DOS PARDAIS 114,83964
429,1,84010445,BR,BR3 EVENTOS LTDA,,,,SAO PAULO,PACAEMBU,,,01245-000,SP,BR3 EVENTO,R ITAPOLIS,83992
430,1,84010446,BR,DUO CENTER COMERCIO DE VEICULOS LTD,,,,Uberlandia,Carajás,,,38408-680,MG,DUO CENTER,Av Joao Naves de Avila 1331,83995
431,1,84010447,BR,PROMARKT SERVICOS EIRELI,,,,SAO PAULO,CHACARA MAFALDA,,,03372-015,SP,PROMARKT,AV VEREADOR ABEL FERREIRA,83996
432,1,84010448,BR,WALTER FERREIRA FILHO,,,,Sao Paulo,Sao Paulo,,,01311-120,SP,WALTER,AV PAULISTA 1765,84061
433,1,84010449,BR,CARLOS ALBERTO CORDEIRO DAMIAO,,,,Sao Paulo,Sao Paulo,,,05684-010,SP,CARLOS ALB,AV SAO PAULO ANTIGO 145,84062
434,1,84010450,BR,HOTEIS ROYAL PALM PLAZA LTDA.,,,,CAMPINAS,JD NOVA CALIFORNIA,,,13051-024,SP,HOTEIS ROY,AV ROYAL PALM PLAZA 277,84073
435,1,84010451,BR,CANAL DE COMUNICACAO DE EVENTOS EIR,,,,Sao Paulo,CHACARAS CAMPOS DOS AMARAIS,,,13082030,SP,CANAL DE C,RUA FRANCISCO CEARA BARBOSA 629,84095
436,1,84010452,BR,FEED FOOD RESTAURANTE LTDA,,,,Sao Paulo,PINHEIROS,,,05404-011,SP,FEED FOOD,R ARTUR DE AZEVEDO 517,84096
437,1,84010453,BR,BCH EVENTOS EIRELI,,,,Sao Paulo,BROOKLIN PAULISTA,,,04.570-001,SP,BCH EVENTO,AV NOVA INDEPENDENCIA,84097
438,1,84010454,BR,CHEF NOUVEAU BANQUETERIA COMERCIO D,,,,Sao Paulo,BROOKLIN PAULISTA,,,04560-00,SP,CHEF NOUVE,R NOVA YORK 302,84098
439,1,84010455,BR,STUDIO 190 EVENTOS LTDA,,,,Sao Paulo,VILA NOVA CONCEICAO,,,04544-050,SP,STUDIO 190,R MINISTRO JESUINO CARDOSO 190,84099
440,1,84010456,BR,ELYON SOLUCOES GRAFICAS LTDA,,,,Sao Paulo,JARDIM GILDA MARIA,,,0550-060,SP,ELYON SOLU,R MARIO REGALLO PEREIRA 242,84100
441,1,84010460,BR,"BRAZIL SERVICOS, EVENTOS E LOCACAO",,,,Sao Paulo,TATUAPE,,,03316030,SP,BRAZIL SER,R PROFESSORA SEBASTIANA SILVA M 383,84163
442,1,84010461,BR,IS LOCACAO DE MAQUINAS E EQUIPAMENT,,,,Sao Paulo,CIDADE MONCOES,,,04571000,SP,IS LOCACAO,AV ENG LUIZ CARLOS BERRINI 550,84174
443,1,84010462,BR,PIRQUE SP ADMINISTRADORA LTDA,,,,CENTRO,INDAIATUBA,,,13330970,SP,PIRQUE SP,"ROD SP 324, KM 88 S/N",84175
444,1,84010463,BR,MARIAN HEEREN,,,,Sao Paulo,VILA SAO FRANCISCO,,,04583-110,SP,MARIAN HEE,AV. DR CHUCRI ZAIDAN 1240,84185
445,1,84010464,BR,HENRIQUE BREIM,,,,Sao Paulo,VILA SAO FRANCISCO,,,04583-110,SP,HENRIQUE B,AV DR CHUCRI ZAIDAN 1240,84186
446,1,84010465,BR,HENRIQUE MORENO ELIAS BREIM 4066191,,,,Sao Paulo,BURGO PAULISTA,,,03682030,SP,HENRIQUE M,R SUCUPIRA DO NORTE 374,84205
447,1,84010466,BR,GIOVANI ANTIQUEIRA PIASSI 491119898,,,,Sao Paulo,NOVA ANALANDIA,,,13550000,SP,GIOVANI AN,R L 362,84206
448,1,84010467,BR,JOY S. YAMAMOTO FOTOGRAFIA E FILMAG,,,,Sao Paulo,SAUDE,,,04142092,SP,JOY S. YAM,AV BOSQUE DA SAUDE 1725,84277
449,1,84010468,BR,INSTITUTO DE ESTUDOS DE PROTESTO,DE TITULOS DO BRASIL - SECAO SAO PA,,,SAO PAULO,CENTRO,,,01012-001,SP,IEPTB - SP,R ALVARES PENTEADO,84293
450,1,84010469,BR,WEBMOTORS S.A.,,,,Sao Paulo,VILA OLIMPIA,,,04547006,SP,WEBMOTORS,R GOMES DE CARVALHO 1996,84296
451,1,84010470,BR,DANNEMANN SIEMSEN ADVOGADOS,,,,Sao Paulo,BOTAFOGO,,,22251040,SP,DANNEMANN,R MARQUES DE OLINDA 70,84387
452,1,84010471,BR,BORBA CONSTRUCOES EIRELI,,,,BLUMENAU,VILA NOVA,,,89035450,SP,BORBA CONS,R JOAO GOMES DA NOBREGA 191,84398
453,1,84010472,BR,JS CONCEPT COMERCIO DE MOVEIS EIREL,,,,SAO BERNARDO DO CAMPO,JORDANOPOLIS,,,09894050,SP,JS CONCEPT,R SILAS DE OLIVEIRA (CJ H SERGI 101,84399
454,1,84010473,BR,CAPIM RESTAURANTE E EVENTOS LTDA.,,,,SAO PAULO,JARDIM PAULISTANO,,,01451000,SP,CAPIM REST,AV BRIGADEIRO FARIA LIMA 2705,84400
455,1,84010474,BR,GTM CENOGRAFIA LTDA,,,,CAIEIRAS,LARANJEIRAS,,,07743-030,SP,GTM CENOGR,EST DO AJOA 1221,84401
456,1,84010475,BR,"FLEX - SOM, LUZ E IMAGEM LTDA.",,,,Sao Paulo,CAMBUCI,,,01523-020,SP,FLEX,R FREIRE DA SILVA 150,84402
457,1,84010476,BR,AHZ EVENTOS EIRELI,,,,Sao Paulo,VILA OLIMPIA,,,04551-020,SP,AHZ EVENTO,TV FELICIANA PANIERI RICCO 42,84403
458,1,84010477,BR,VISTO-CAR VIVA - INSPECAO VEICULAR,,,,SAO PAULO,PLANALTO PAULISTA,,,04055-020,SP,VISTO-CAR,R ITUXI 220,84411
459,1,84010478,BR,9. TABELIONATO DE PROTESTO DE TITUL,,,,CENTRO,CENTRO,,,01501-000,SP,9. TABELIO,PC DR JOAO MENDES 52,84413
460,1,84010479,BR,NGO ASSESSORIA EMPRESARIAL E COMERC,,,,Sao Paulo,CENTRO,,,01010-010,SP,NGO ASSESS,PC ANTONIO PRADO 33,84427
461,1,84010480,BR,R1 SOLUTIONS INFORMATICA EIRELI,,,,SAO PAULO,VILA SAUDE,,,04145011,SP,R1 SOLUTIO,R CATULO DA PAIXAO CEARENSE 563,84511
462,1,84010481,BR,BANCO DO BRASIL S/A,,,,BANCO DO BRASIL S/A,BANCO DO BRASIL S/A,,,,SP,BANCO DO B,BANCO DO BRASIL S/A,84512
463,1,84010482,BR,QUEIROZ DOMENICONI EQUIPAMENTOS LTD,,,,SAO PAULO,JARDIM IPANEMA,,,04784-130,SP,QUEIROZ,R FRANCSICO GONCALVES FIGUEIRA 184,84612
464,1,84010483,BR,FUNDO DE FISCALIZACAO DAS TELECOMUN,,,,BRASILIA,ASA SUL,,,7070940,DF,FUNDO DE F,"Q SAUS QUADRA 6 BLOCOS C,E,F E H 10",84646
465,1,84010484,BR,ERNST & YOUNG SERVICOS TRIBUTARIOS,,,,SAO PAULO,JARDIM SAO LUIS,,,05804-900,SP,ERNST & YO,AV MARIA COELHO AGUIAR 215,84710
466,1,84010485,BR,TANGARA DESENVOLVIMENTO IMOBILIARIO,,,,Sao Paulo,PARAISO DO MORUMBI,,,05706290,SP,TANGARA DE,R DEPUTADO LAERCIO CORTE 1501,84724
467,1,84010486,BR,Yes Serviços em Certificado Eireli,,,,São Paulo,Barra Funda,,,01155-060,SP,YES SERVIÇ,R. doutor Alfredo de Castro 200,84742
468,1,84010487,BR,MARKET ANALYSIS BRASIL LTDA,,,,FLORIANOPOLIS,SANTA MONICA,,,88035-330,SC,MARKET ANA,R FELIX KLEIS 23,84756
469,1,84010488,BR,CADASTRO INATIVO,,,,SAO PAULO,VILA LEOPOLDINA,,,05317-020,SP,DHL EXPRES,AV MANUEL BANDEIRA 291,84795
470,1,84010489,BR,MARINA LANDULFO NOVAIS 31181572835,,,,Sao Paulo,VILA LEONOR,,,02077-020,SP,MARINA LAN,R EDGAR 300,84796
471,1,84010490,BR,ATUAL SERVICOS ESPECIALIZADOS S/S L,,,,COTIA,GRANJA VIANA II,,,06707-100,SP,ATUAL SERV,AV JOSE GIORGI 1121,84797
472,1,84010491,BR,SPE GL EVENTS CENTRO DE CONVENCOES,,,,Sao Paulo,AGUA FUNDA,,,04329-900,SP,SPE GL EVE,ROD DOS IMIGRANTES,84805
473,1,84010492,BR,ENVETHERM VENTILADORES E CLIMATIZAD,,,,SAO PAULO,VILA EMA,,,03279-000,SP,ENVETHERM,R HERWIS 363,84821
474,1,84010493,BR,J.P. SAWAIA MANOPPELLA FEIRAS E EVE,,,,Sao Paulo,JABAQUARA,,,04309-011,SP,J.P. SAWAI,AV ENGENHEIRO ARMANDO DE ARRUD 2937,84822
475,1,84010494,BR,VILA TOUR AGENCIA DE VIAGENS E TURI,,,,Sao Paulo,VILA LEOPOLDINA,,,05303-000,SP,VILA TOUR,R CARLOS WEBER 396,84823
476,1,84010495,BR,INSTITUTO BRASILEIRO DO MEIO AMBIEN,,,,BRASILIA,ASA NORTE,,,70818-900,DF,INSTITUTO,SCEN SETOR CLUB ESP.NORTE,84828
477,1,84010496,BR,STUDIO SAT MARKETING LTDA,,,,Sao Paulo,VILA NOVA CACHOEIRINHA,,,02611-003,SP,STUDIO SAT,AV PARADA PINTO 894,84829
478,1,84010497,BR,NUCLEO NEGOCIOS & RELACIONAMENTO,,,,PORTO ALEGRE,BOM FIM,,,90035-052,RS,NUCLEO NEG,R GARIBALDI 1116,84843
479,1,84010498,BR,GL EVENTS LE SA,,,,Sao Paulo,AGUA FUNDA,,,04329-900,SP,GL EVENTS,ROD DOS IMIGRANTES 1500,84844
480,1,84010499,BR,DIVERTI ENTRETENIMENTO E EVENTOS LT,,,,Sao Paulo,JARDIM AMERICA,,,01442-002,SP,DIVERTI,AL GABRIEL MONTEIRO DA SILVA 2600,84845
481,1,84010500,BR,CPD CONSULTORIA TRIBUTARIA LTDA,,,,Sao Paulo,VILA AZEVEDO,,,03308030,SP,CPD CONSUL,R CEL JOAQUIM ANTONIO DIAS 243,84920
482,1,84010501,BR,HTH LOCACAO E CONSULTORIA LTDA,,,,Sao Paulo,ITAIM BIBI,,,04534-000,SP,HTH LOCACA,R JOAQUIM FLORIANO 243,84944
483,1,84010502,BR,SECRETARIA DE ESTADO DE FAZENDA DE,,,,BELO HORIZONTE,SERRA VERDE,,,31630-9001,MG,SECRETARIA,ROD PAPA JOAO PAULO II 4001,84975
484,1,84010503,BR,SVMC COMERCIO E REPRESENTACOES DE T,,,,Sao Paulo,JARDIM PAULISTANO,,,01453-011,SP,SVMC COMER,R DR MARIO FERRAZ 502,85012
485,1,84010504,BR,ALEXANDRE ZIELINSKYJ DA SILVA 11766,,,,ITAJAI,FAZENDA,,,88302-340,SC,ALEXANDRE,R CECILIA BRANDAO 251,85050
486,1,84010505,BR,WOOL LINE CONFECCOES INDUSTRIA E CO,,,,SAO PAULO,MIRANDOPOLIS,,,04047-001,SC,WOOL LINE,AV SENADOR CASIMIRO DA ROCHA 692,85061
487,1,84010506,BR,YES SERVICOS EM CERTIFICACAO EIRELI,,,,Sao Paulo,BARRA FUNDA,,,01155-060,SP,YES SERVIC,R DOUTOR ALFREDO DE CASTRO 200,85215
488,1,84010507,BR,EMPORIO TRES IRMAOS EVENTOS E DRINK,,,,Sao Paulo,FERREIRA,,,05523-030,SP,EMPORIO TR,R DOUTOR ROQUE DE LORENZO 80,85305
489,1,84010508,BR,CORONAS DE ARAGON COMERCIO DE REFEI,,,,Sao Paulo,CERQUEIRA CESAR,,,01410-003,SP,CORONAS DE,AL MINISTRO ROCHA AZEVEDO 1373,85343
490,1,84010509,BR,CONCEPT MOBILITY SERVICOS DE MOBILI,,,,BARUERI,ALPHAVILLE INDUSTRIAL,,,06454-040,SP,CONCEPT MO,AL MAMORE 503,85373
491,1,84010510,BR,AUTO+ ENTRETENIMENTO LTDA,,,,Sao Paulo,BUTANTA,,,05512-200,SP,AUTO+ ENTR,AV FRANCISCO MORATO 20368,85374
492,1,84010515,BR,ED MAIS DOCES FINOS LTDA,,,,Sao Paulo,PERDIZES,,,05015-000,SP,ED MAIS DO,R MINISTRO GODOI 524,85428
493,1,84010516,BR,TP - ART TELEPROMPTER ALUGUEL,DE MAQUINAS LTDA,,,SAO PAULO,VILA IMPERIO,,,04406-200,SP,TP - ART,R FLOR DE TODOS OS TEMPOS 19,85474
494,1,84010517,BR,MOREIRA E FIORDA COMUNICACAO LTDA,,,,GUARAREMA,ITAPEMA,,,08900-000,SP,MOREIRA E,"R ALEXANDRE LONGO 55, SALA A",85475
495,1,84010518,BR,RAVIN IMPORTADORA E DISTRIBUIDORA D,,,,Sao Paulo,MOOCA,,,03118-000,SP,RAVIN IMPO,R PADRE RAPOSO 93,85476
496,1,84010519,BR,JHSF MALLS S.A.,,,,SAO PAULO,CIDADE JARDIM,,,05676-120,SP,JHSF MALLS,AV MAGALHAES DE CASTRO 12000,85493
497,1,84010520,BR,DHL EXPRESS (BRAZIL) LTDA,,,,CAMPINAS,JARDIM ITATINGA,,,13052-970,SP,DHL EXPRES,"ROD SANTOS DUMONT KM 66, A. VIRACOP",85497
498,1,84010521,BR,BRADOS DISTRIBUIDORA LTDA,,,,PORTO ALEGRE,AUXILIADORA,,,90480-000,RS,BRADOS DIS,AV CARLOS GOMES 222,85498
499,1,84010522,BR,BRANDS LAB SERVICOS DE PUBLICIDADE,,,,Sao Paulo,SANTA CECILIA,,,01230-000,SP,BRANDS LAB,R DOUTOR ALBUQUERQUE LINS 992,85499
500,1,84010523,BR,KAPTA FILMES PRODUCAO E COMUNICAO D,,,,Sao Paulo,VILA INAH,,,05620-030,SP,KAPTA FILM,R ALCOBACA 190,85500
501,1,84010524,BR,TOP MOTION SERVICOS DE COMPUTACAO G,,,,Sao Paulo,VILA SAO FRANCISCO,,,04711-130,SP,TOP MOTION,AV DOUTOR CHUCRI ZAIDAN 1808,85551
502,1,84010525,BR,DRAGON EVENTOS LTDA,,,,Sao Paulo,BELA VISTA,,,01315-000,SP,DRAGON EVE,R SANTO AMARO 538,85552
503,1,84010526,BR,FISHEYE SOLUCAO EM IMAGEM LTDA.,,,,Sao Paulo,SANTANA,,,02010-000,SP,FISHEYE SO,R VOLUNTARIOS DA PATRIA 560,85553
504,1,84010527,BR,SETUGROUP GESTAO EMPRESARIAL,,,,Sao Paulo,VILA ALMEIDA,,,04795-100,SP,SETUGROUP,AV DAS NACOES UNIDAS 18801,85577
505,1,84010528,BR,MP MULTIMEDIA LTDA,,,,Sao Paulo,SICILIANO,,,05052-050,SP,MP MULTIME,R COSTA MORGADO 144,85583
506,1,84010529,BR,ORBITAL SIGNS COMERCIO E PRESTADORA,,,,Sao Paulo,VILA MAZZEI,,,02309-100,SP,ORBITAL SI,R ENOTRIA 35,85584
507,1,84010530,BR,MANTIS TECNOLOGIA LTDA,,,,VITORIA,SANTA LUCIA,,,29056-925,ES,MANTIS TEC,R DAS PALMEIRAS 795,85585
508,1,84010531,BR,EDITORA E GRAFICA,,,,Sao Paulo,BARRA FUNDA,,,01135-000,SP,EDITORA E,R ANHANGUERA 815,85586
509,1,84010532,BR,RENATA CASSIM DORNELLAS MALAGOLI,,,,OSASCO,CONTINENTAL,,,06020-194,SP,RENATA CAS,AV MANOEL PEDRO PIMENTEL 315,85587
510,1,84010533,BR,DEISE PRODUCOES E EVENTOS LTDA,,,,OSASCO,JD IAPI,,,06236-030,SP,DEISE PROD,R ROMILDO ISAIAS NETO 244,85588
511,1,84010534,BR,IVAIR LADEIRA 17927910892,,,,SAO BERNARDO DO CAMPO,JORDANOPOLIS,,,09894-200,SP,IVAIR LADE,R MEJICA L SEQUEIRA DE RODRIGUE 451,85589
512,1,84010535,BR,AGENDAS POMBO-LEDIBERG LTDA,,,,COTIA,JARDIM DA GLORIA,,,06711-250,SP,AGENDAS PO,AV JOAO PAULO ABLAS 777,85590
513,1,84010536,BR,M.M.L ELIAS PUBLICIDADE,,,,Sao Paulo,JARDIM DAS ACACIAS,,,04707-061,SP,M.M.L ELIA,R JOAQUIM GUARANI 452,85591
514,1,84010537,BR,INCNET - INFORMATICA E TECNOLOGIA E,,,,Sao Paulo,VILA PRUDENTE,,,03128-170,SP,INCNET - I,R LUIS GREGNANIN 250,85595
515,1,84010538,BR,BR MOBILE LOCACAO E COMERCIO DE EQU,,,,Sao Paulo,ITAIM BIBI,,,04533-001,SP,BR MOBILE,R TABAPUA 500,85596
516,1,84010539,BR,CONSORCIO SHOPPING CENTER JK IGUATE,,,,Sao Paulo,VILA NOVA CONCEICAO,,,04543-011,SP,CONSORCIO,AV PRESIDENTE JUSCELINO KUBITS 2041,85597
517,1,84010540,BR,CONDOMINIO SHOPPING CENTER IGUATEMI,,,,Sao Paulo,JARDIM PAULISTANO,,,01489-900,SP,CONDOMINIO,AV BRIGADEIRO FARIA LIMA 2232,85598
518,1,84010541,BR,MUNICIPIO DE SOROCABA,,,,SOROCABA,PARQUE BOA VISTA,,,18013-280,SP,MUNICIPIO,AV ENG CARLOS R MENDES s/n,85710
519,1,84010542,BR,UPS DO BRASIL REMESSAS EXPRESSAS LT,,,,Sao Paulo,VILA SOFIA,,,04671-245,SP,UPS DO BRA,R DOM AGUIRRE 554,85765
520,1,84010543,BR,ANACAPRI INTERNATIONAL REALTY LTDA,,,,Sao Paulo,VILA SAO FRANCISCO (ZONA SUL),,,04711-130,SP,ANACAPRI,AV DOUTOR CHUCRI ZAIDAN 1550,85810
521,1,84010544,BR,A.Z.I. INFORMATICA COMERCIAL LTDA,,,,Sao Paulo,SAO BERNARDO DO CAMPO,,,09750-190,SP,A.Z.I. INF,R NICOLA ADAMO (JD T MARIAS) 257,85834
522,1,84010545,BR,LUCCHI DECORACOES LTDA,,,,Sao Paulo,BOSQUE DA SAUDE,,,04142-000,SP,LUCCHI DEC,AV BOSQUE DA SAUDE 713,85835
523,1,84010546,BR,TRIARTS NEW MEDIA COMUNICACAO LTDA,,,,Sao Paulo,JARDIM PAULISTANO,,,01443-010,SP,TRIARTS NE,R CAPITAO ANTONIO ROSA 409,85865
524,1,84010547,BR,RAFAEL MLATISOMA DE ANDRADE 0260266,,,,Sao Paulo,VILA MADALENA,,,05452-00,SP,RAFAEL MLA,R DOUTOR ALBERTO SEABRA 844,85866
525,1,84010548,BR,ARMAZENS GERAIS E ENTREPOSTOS SAO B,,,,SAO BERNARDO DO CAMPO,DEMARCHI,,,09820-655,SP,ARMAZENS G,AV NICOLA DEMARCHI 1500,85898
526,1,84010549,BR,TRIBUNAL REGIONAL DO TRABALHO DA 12,,,,FLORIANOPOLIS,CENTRO,,,88015-905,SC,TRIBUNAL R,R ESTEVES JUNIOR 395,85919
527,1,84010550,BR,"OPPORTUNITY REDACAO, REVISAO GRAMAT",,,,Sao Paulo,CERQUEIRA CESAR,,,01422-003,SP,OPPORTUNIT,AL FRANCA 1050,85921
528,1,84010551,BR,C B M CENTRAL BRASILEIRA DE MADEIRA,,,,SAO PAULO,VILA CANAAN,,,04381-001,SP,C B M CENT,AV VEREADOR JOAO DE LUCA 1650,85931
529,1,84010552,BR,LAVA JATO - CONSERVACAO PREDIAL LTD,,,,SANTO ANDRE,JARDIM LAS VEGAS,,,09182-520,SP,LAVA JATO,R DEMETRIO GHIRARDELLO 176,85932
530,1,84010553,BR,IPE FERRAGENS LTDA,,,,SAO PAULO,PINHEIROS,,,05424-010,SP,IPE FERRAG,R PAES LEME 88,85933
531,1,84010554,BR,MELIA BRASIL ADMINISTRACAO HOTELEIR,,,,Sao Paulo,CAMBUI,,,13025-050,SP,MELIA BRAS,R SEVERO PENTEADO 140,85934
532,1,84010555,BR,INSIGHT FIRE SISTEMAS DE PREVENCAO,,,,Sao Paulo,INTERLAGOS,,,04783-000,SP,INSIGHT FI,AV ANTONIO BARBOSA DA SILVA SAND 53,85993
533,1,84010556,BR,FAST SHOP S.A,,,,SAO PAULO,VILA GERTRUDES,,,04707-900,SP,FAST SHOP,AV ROQUE PETRONI JUNIOR 1089,86011
534,1,84010557,BR,ESTOK COMERCIO E REPRESENTACOES S.A,,,,Sao Paulo,PINHEIROS,,,05423-080,SP,ESTOK COME,R HENRIQUE DA CUNHA 68,86021
535,1,84010558,BR,AGILE COMERCIO DE MOVEIS EIRELI,,,,Sao Paulo,BROOKLIN PAULISTA,,,04560-000,SP,AGILE COME,R NOVA YORK 434,86022
536,1,84010559,BR,ESTOK COMERCIO E REPRESENTACOES S.A,,,,Sao Paulo,VILA ANDRADE,,,05724-002,SP,ESTOK COME,AV GIOVANNI GRONCHI 5930,86023
537,1,84010560,BR,INSTRUMBRASIL INSTRUMENTOS DE MEDIC,,,,Sao Paulo,JARDIM DAS ACACIAS,,,04707-051,SP,INSTRUMBRA,R ANDREA PAULINETTI 251,86024
538,1,84010561,BR,SPINELLI RACING EXPERIENCE LTDA,,,,MOGI-GUACU,PARQUE CIDADE NOVA,,,13845-510,SP,SPINELLI R,ROD SP-342,86044
539,1,84010562,BR,BMQ Automoveis Ltda,,,,Belo Horizonte,Estoril,,,30494-170,MG,PC BELO HO,Av. Raja Gabaglia 2222,86089
540,1,84010563,BR,CONDOMINIO MORUMBI CORPORATE TOWERS,,,,SAO PAULO,VILA CORDEIRO,,,04583-110,SP,CONDOMINIO,AV DOUTOR CHUCRI ZAIDAN 1240,86102
541,1,84010564,BR,MELIA BRASIL ADMINISTRACAO HOTELEIR,,,,SAO PAULO,BROOKLIN NOVO,,,04.569-011,SP,MELIA BRAS,R QUINTANA 934,86165
542,1,84010565,BR,HTL SP PARTICIPACOES S/A,,,,SAO PAULO,CHACARA SANTO ANTONIO,,,04794-000,SP,HTL SP PAR,AV NACOES UNIDAS 14401,86186
543,1,84010566,BR,CADASTRO INATIVO,CINTIA YURI K. SHIBUYA,,,SAO PAULO,VILA SUZANA,,,05709-050,SP,CINTIA YUR,R SAMIA HADDAD 111,86187
544,1,84010570,BR,EUREKA PAINT,BRADOS DISTRIBUIDORAS,,,SALA 816,PORTO ALEGRE,,,90840000,RS,EUREKA,AV CARLOS GOMES 222,86276
545,1,84010571,BR,MB ASSOCIADOS SOCIEDADE SIMPLES,,,,00090,PINHEIROS,,,05423020,SP,MB ASSOCIA,RUA HENRIQUE MONTEIRO,86328
546,1,84010572,BR,HOTELARIA ACCOR,,,,B1,SANTO AMARO,,,04709110,SP,ACCOR,RUA HENRI DUNANT 792,86329
547,1,84010573,BR,CINTIA YURI R. SHIBUYA,,,,AP 11D,VILA SUZANA,,,05709050,SP,CINTIA YUR,RUA SAMMIA HADDAD 111,86330
548,1,84010574,BR,.,,,,MODULO G,ASA NORTE,,,70836000,DF,.,SGAN 601 MODULO,86361
549,1,84010575,BR,CELLERA FARMACEUTICA S.A.,,,,INDAIATUBA,RECREIO CAMPESTRE JOIA,,,13347310,SP,CELLERA,ALAMEDA CAPOVILLA 129,86392
550,1,84010576,BR,TICKET SOLUCOES HDFGT SA,,,,CAMPO BOM,SANTA LUCIA,,,93700000,RS,TICKET SOL,RUA MACHADO DE ASSIS 50,86403
551,1,84010580,BR,CORPORASSOM,,,,SAO PAULO,RIO BONITO,,,04824020,SP,CORPORASSO,RUA MAMONEIRA 148,86507
552,1,84010581,BR,TRANSBLINDADOS LOCADORA,,,,SAO PAULO,BELA VISTA,,,01311000,SP,TRANSBLIND,AV PAULISTA 37,86513
553,1,84010582,BR,BLUEMIND CONSULTORIA,,,,SAO PAULO,VILA SAO FRANCISCO,,,03308030,SP,BLUEMIND,R CEL JOAQUIM ANTONIO DIAS 243,86514
554,1,84010583,BR,GM&C SOLUCOES EM LOGISTICA REVERSA,E RECICLAGEM LTDA,,,SAO JOSE DOS CAMPOS,CHACARAS REUNIDAS,,,12238-365,SP,GM&CLOG,AV DOUTOR SEBASTIAO HENRIQUE 8000,86519
555,1,84010584,BR,CONDOMINIO BEIRAMAR SHOPPING CENTER,,,,FLORIANOPOLIS,CENTRO,,,88015-530,SC,BEIRAMAR S,R BOCAIUVA 2468,86527
556,1,84010585,BR,PORTO ESPORTIVO ITAJAI LTDA,,,,ITAJAÍ,CENTRO,,,88301-445,SC,PORTO ESPO,AV CARLOS ELY CAS 100,86545
557,1,84010586,BR,ED MAIS DOCES FINOS,,,,SAO PAULO,PERDIZES,,,05015-000,SP,DOCES,RUA MINISTRO GODOI 127,86600
558,1,84010587,BR,FLEETZIL LOCACOES E SERVICOS LTDA.,,,,CURITIBA,CENTRO,,,80410-180,PR,FLEETZIL,AL DOUTOR CARLOS DE CARVALHO 373,86632
559,1,84010588,BR,POWER MORUMBI ARTES GRAFICAS LTDA,,,,SAO PAULO,CIDADE MONCOES,,,04571-010,SP,POWER MORU,AV ENGENHEIRO LUIZ CARLOS BERR 1405,86709
560,1,84010589,BR,SHOWFREIGHTER LOGISTICA LTDA,,,,SAO PAULO,VILA GUILHERME,,,02060-000,SP,SHOWFREIGH,RUA EUGENIO DE FREITAS 253,86733
561,1,84010590,BR,FEDERAL EXPRESS CORPORATION,,,,SAO PAULO,VILA ALMEIDA,,,04795-100,SP,FEDERAL EX,AV DAS NACOES UNIDAS 17891,86734
562,1,84010591,BR,SERASA S.A.,,,,SAO CARLOS,DISTRITO INDUSTRIAL MIGUEL ABDELNUR,,,13571-385,SP,SERASA S.A,AV DOUTOR HEITOR JOSE REALI 360,86788
563,1,84010592,BR,PREFEITURA MUNICIPAL DE BELO HORIZO,,,,CENTRO,CENTRO,,,30130-908,MG,BELO HORIZ,AV AFONSO PENA 1212,87166
564,1,84010593,BR,TRANSPORTADORA SIGRIST LTDA,,,,CAMPINAS,VILA MARIETA,,,13044-125,SP,SIGRIST LT,AV JORGE TIBIRICA 1770,87170
565,1,84010594,BR,ACQUA BAR E RESTAURANTE LTDA,,,,FLORIANOPOLIS,JURERE INTERNACIONAL,,,88053-390,SC,ACQUA BAR,AV DOS ICARAIS S/N,87306
566,1,84010595,BR,WAIVER LOGISTICA BRASIL LTDA,,,,SALA 14,SANTANA,,,02017-010,SP,WAIVER,RUA ALFREDO PUJOL 285,87307
567,1,84010596,BR,ORGANIZACAO VERDEMAR LTDA,,,,BELO HORIZONTE,CARMO,,,30320-000,MG,ORGANIZACA,"AV NOSSA SENHORA DO C 1900, ANDAR 4",87344
568,1,84010597,BR,TEDESCO TURISMO LTDA,,,,BALNEARIO CAMBORIU,BARRA SUL,,,88330-123,SC,TEDESCO TU,AV NORMANDO TEDESCO 1350,87345
569,1,84010598,BR,FERNANDA DA COSTA,PRIME,,,APTO 71,VILA LAIS,,,03612-000,SP,PRIME,RUA CORONEL MEIRELES 279,87354
570,1,84010599,BR,ORGANIZACAO VERDEMAR LTDA,,,,BELO HORIZONTE,CARMO,,,30320-000,MG,ORGANIZACA,AVENIDA NOSSA SENHORA DO CARMO 1900,87364
571,1,84010600,BR,ROBERT HALF TRABALHO TEMPORARIO LTD,,,,SAO PAULO,VILA OLIMPIA,,,04 48-004,SP,ROBERT HAL,"AV DOUTOR CARDOSO DE 1184, ANDAR: 9",87414
572,1,84010601,BR,BUENO TEIXEIRA GRAFICA RAPIDA LTDA,,,,VALINHOS,LOTEAMENTO NOVA ESPIRITO SANTO,,,13273-202,SP,BUENO TEIX,R WALDOMIRO ROSSI 139,87415
573,1,84010602,BR,AAJ HOTEIS E TURISMO LTDA,,,,MOGI GUACU,JD DAS GRACAS,,,13845-350,SP,AAJ HOTEIS,PRESIDENTE TANCREDO NEVES 1855,87423
574,1,84010603,BR,"SORELUZ LOCACAO DE GUINDASTES, TRAN",COMERCIO DE AUTO PECAS LTDA,,,COLOMBO,RIO VERDE,,,83405-280,PR,SORELUZ LO,R MARGINAL PARAGUAI 585,87560
575,1,84010604,BR,SPOSITO FOTO DESIGN,,,,SAO PAULO,MIRANDOPOLIS,,,04050-000,SP,FOTO,RUA DAS ORQUIDEAS 287,87573
576,1,84010605,BR,RENATA DINIZ DE PETTA & CIA LTDA,,,,PIRACICABA,HIGIENOPOLIS,,,13417-290,SP,RENATA,RUA GUAPORE 79,87574
577,1,84010606,BR,SACOLAS REGISPEL INDUSTRIA E COM,,,,SAO PAULO,JD ANDARAI,,,02169-000,SP,REGISPEL,RUA GENERAL JOAO CARLOS LOBO BO 425,87575
578,1,84010607,BR,HAGANA SEGURANCA LIMITADA,,,,BARRA FUNDA,BARRA FUNDA,,,01137-000,SP,HAGANA,RUA CRUZEIRO 549,87593
579,1,84010608,BR,ESTACIONAMENTO BATEL SHOPPING LTDA,,,,CURITIBA,BATEL,,,80420-090,PR,BATEL SHOP,AV DO BATEL 1868,87713
580,1,84010609,BR,Empresa Brasileira de Correios,,,,Sao Paulo,Vila Leopoldina,,,05311-030,SP,CORREIOS,Rua Mergenthaler 592,87737
581,1,84010610,BR,CENOFISCO CENTRO DE CAPACITACAO PRO,,,,SAO PAULO,CENTRO,,,01311-200,SP,CENOFISCO,AV PAULISTA 1337 242,87789
582,1,84010611,BR,Contessoto pneus e acessorios ltda,,,,ESPIRITO SANTO DO PINHAÇ,CENTRO,,,13990-000,SP,CONTESSOTO,avenidda washington luiz 1050,87854
583,1,84010612,BR,ANDRE HENRIQUE DE PAULA 13086493801,A,,,RIBEIRAO PRETO,JARDIM PAULISTA,,,14090-200,SP,ANDRE HENR,R HENRIQUE DUMON 1555,87871
584,1,84010615,BR,GJP HOTEIS EXCLUSIVOS LTDA,,,,GRAMADO,CENTRO,,,95670-000,RS,GJP HOTEIS,R DAS FLORES 171,87912
585,1,84010616,BR,CUSTOM EDITORA LTDA,,,,SAO PAULO,JARDIM PAULISTA,,,01407-200,SP,CUSTOM EDI,AV NOVE DE JULHO 5593,87943
586,1,84010617,BR,ADH HOTELARIA LTDA,,,,SAO JOSE,BARREIROS,,,88117-200,SP,IBIS,RUA DOMINGOS ANDRE ZANINI 333,87975
587,1,84010618,BR,BUREAU TRANSLATIONS & COMUNIC,,,,CJ 51,ALPHAVILLE,,,06454-040,SP,BUREAU,ALAMEDA MARMORE 503,87976
588,1,84010620,BR,GRAFICA TUDO EIRELI,,,,SAO PAULO,JARDIM PEREIRA LEITE,,,02712-140,SP,GRAFICA TU,RUA MAEST GABRIEL MIMIGLIORI 495,88059
589,1,84010621,BR,TRANS TRUCK LOG E TRANSP LTDA,,,,SAO PAULO,AGUA RASA,,,03342-000,SP,TRANS TRUC,AV REGENTE FEIJO 944,88094
590,1,84010622,BR,ASSESSORIA TECNICA ATENE LTDA,,,,SAO PAULO,CERQUEIRA CESAR,,,01419-002,SP,ATENE,AL SANTOS 2441,88095
591,1,84010623,BR,REFRIGERACAO SAO PAULO LTDA,,,,SAO PAULO,MOGI GUACU,,,13840-005,SP,REFRIGERAC,RUA CHICO DE PAULA 936,88125
592,1,84010624,BR,Minutes4All,,,,sao paulo,Jd das acacias,,,04707-000,SP,MINUTES 4,avenida roque petroni junior 1089,88175
593,1,84010625,BR,Emporio do Verde Plantas Ltda,,,,Sao Paulo,Jardim Luzitania,,,04030-020,SP,EMPÓRIO,Rua Dr Sarmento 48,88250
594,1,84010626,BR,2 TABELIAO DE NOTAS,,,,SAO PAULO,REPUBLICA,,,01220-010,SP,2 TABELIAO,R REGO FREITAS 133,88263
595,1,84010627,BR,RESTAURANTE RANCHO 53 LTDA,,,,ARACARIGUAMA,DO RONDA,,,18147-000,SP,RANCHO 53,RUA N S PENHA 1,88296
596,1,84010628,BR,ALIANSCE SERVICES - SERVICOS,ADMINISTRATIVOS EM GERAL LTDA,,,RIO DE JANEIRO,BARRA DA TIJUCA,,,22775-904,SP,ALIANSCE S,AV AYRTON SENNA 3000,88377
597,1,84010629,BR,TSSE BRASIL COM E PREST DE SERV,,,,Sao Paulo,JD CARAVELAS,,,04728-060,SP,TSSE,R FERREIRA DO ALENTEJO 365,88384
598,1,84010630,BR,CONDOMINIO DO JOINVILLE GARTEN SHOP,,,,JOINVILLE,BOM RETIRO,,,89223-005,SC,CONDOMINIO,AV ROLF WIEST 333,88386
599,1,84010631,BR,LUANDA EMPREENDIMENTOS E PARTICIPAC,,,,RIO DE JANEIRO,LEBLON,,,22431-050,RJ,LUANDA,R DIAS FERREIRA 190,88387
600,1,84010632,BR,Nova Band comercial de veículos Ltd,,,,São Paulo,Alphaville,,,06541-038,SP,NOVA BAND,Av Dr. Yojiro Takaoka 4.700,88398
601,1,84010633,BR,LIBERTY SEGUROS S/A,,,,BROOKLIN NOVO,BROOKLIN NOVO,,,04571-020,SP,LIBERTY SE,R DR GERALDO DE CAMPOS MOREIRA 110,88401
602,1,84010634,BR,EMSA EMPRESA SUL AMERICANA DE MONTA,,,,BRASILIA,AREA ESPECIAL DE RESTAURANTES,,,71630-100,DF,EMSA EMPRE,AE SHIS QL 1 S/N,88402
603,1,84010635,BR,VISTO CAR VIVA INSP DE VEIC LTDA,,,,SAO PAULO,VILA SAO FRANCISCO,,,04583-110,SP,VISTO CAR,RUA ITUXI 220,88409
604,1,84010636,BR,SECRETARIA DA FAZENDA E PLANEJAMENT,,,,SAO PAULO,SE,,,01017-000,SP,SECRETARIA,AV RANGEL PESTANA 300,88558
605,1,84010637,BR,KUEHNE+NAGEL SERVICOS LOGISTICOS LT,,,,SAO PAULO,VILA GERTRUDES,,,04794-000,SP,KUEHNE+NAG,AV DAS NACOES UNIDAS 14171,88559
606,1,84010638,BR,ELEMIDIA CONSULTORIA E SERVICOS,DE MARKETING S.A,,,SAO PAULO,ITAIM BIBI,,,04538-132,SP,ELEMIDIA,AV BRIGADEIRO FARIA LIMA 4300,88569
607,1,84010640,BR,HOTELARIA BRASIL LTDA,,,,RIO DE JANEIRO,BARRA DA TIJUCA,,,22793-081,RJ,HOTELARIA,AV DAS AMERICAS 8585,88674
608,1,84010641,BR,AWP SERVICE BRASIL LTDA,,,,SAO BERNARDO DO CAMPO,CENTRO,,,09750-730,SP,AWP BRASIL,RUA JOSE VERSOLATO 101,88738
609,1,84010642,BR,CONSORCIO EMPREENDEDOR CRYSTAL,PLAZA SHOPPING CENTER,,,CURITIBA,BATEL,,,80420-000,PR,PLAZA SHOP,R COMENDADOR ARAUJO 731,88754
610,1,84010643,BR,LILIA CRISTIANE MORAES DOS SANTOS,,,,PINHAS,JARDIM CLAUDIA,,,83326-550,PR,LILIA CRIS,ADOLPHO MUHLMANN 59,88782
611,1,84010644,BR,BARRA GUINHO SERVICOS DE REBOQUE,,,,RIO DE JANEIRO,JACAREPAGUA,,,22775-060,RJ,BARRA GUIN,RUA AROAZES 420,88805
612,1,84010645,BR,DUAS IRMAS COMERCIOS E SERVS,,,,RIO DE JANEIRO,BONSUCESSO,,,21040-300,RJ,DUAS IRMAS,RUA VINTE E QUATRO DE FEVEREIRO 30,88806
613,1,84010646,BR,GLOBAL PREMIUM DISTRIB DE FERRAMENT,,,,Sao Paulo,JARDIM IRIS,,,05145-200,SP,GLOBAL,AV RAIMUNDO PEREIRA DE MAGALHA 3950,88807
614,1,84010647,BR,HUAWEI DO BRASIL TELECOMUNICACOES L,,,,SOROCABA,EDEN,,,18087-220,SP,HUAWEI DO,AV JEROME CASE 2600,88908
615,1,84010650,BR,PriceWaterHouseCoopers Audit Indp,,,,Sao Paulo,AGUA RASA,,,05001-100,SP,PWC,AV FRANCISCO MATARAZZO 1400,89053
616,1,84010651,BR,NETWORK PARTICIPACOES,,,,Sao Paulo,JARDIM PAULISTA,,,01422-001,SP,NETWORK,AL FRANCA 1423,89054
617,1,84010652,BR,ALTAS IDEIAS EM GASTRONOMIA,,,,RIO DE JANEIRO,SAO CRISTOVA,,,20920-010,RJ,ALTAS IDEI,RUA TUIUTI 95,89055
618,1,84010653,BR,PORTAL 3D PLUS COMERCIO LTDA,,,,SAO PAULO,VILA LEOPOLDINA,,,05305-070,SP,PORTAL 3D,R PDE MELITON VIGUERA PENILLOS 51,89147
619,1,84010654,BR,TRANSVIPCAR TRANSPORTE LTDA,,,,RIO DE JANEIRO,QUINTINO BOCAIUVA,,,21380-246,RJ,TRANSVIPCA,AV DOM HELDER CAMARA 9098,89209
620,1,84010655,BR,NOBILE GESTAO DE EMPREENDIMENTO,,,,Sao Paulo,NOVA PIRAJU,,,04625-005,SP,NOBILE GES,RUA HENRIQUE FAUSTO LANCELLOTT 6333,89210
621,1,84010656,BR,PARTY RESTAURANTE E LANCHONETE LTDA,,,,SAO PAULO,CAMPO BELO,,,04625-005,SP,PARTY REST,R HENRIQUE FAUSTO LANCELOTTI 6333,89211
622,1,84010657,BR,HOTEL SAO PAULO ADMINISTRADOR,,,,BELO HORIZONTE,LOURDES,,,30170-137,MG,HOTEL SAO,RUA SAO PAULO 2320,89221
623,1,84010658,BR,ALLIANZ SEGUROS S/A,,,,SAO PAULO,PINHEIROS,,,05425-000,SP,ALLIANZ,RUA EUGENIO DE MEDEIROS 303,89270
624,1,84010659,BR,MIRANDA E ADVOGADOS ASSOCIADOS,,,,SAO PAULO,CENTRO,,,01009-000,SP,MIRANDA E,R LIBERO BADARO 101,89305
625,1,84010660,BR,VOLKSWAGEN DO BRASIL INDUSTRIA,DE VEICULOS AUTOMOTORES LTDA,,,SAO BERNARDO DO CAMPO,DEMARCHI,,,09823-901,SP,VOLKSWAGEN,VIA ANCHIETA S/N,89362
626,1,84010661,BR,EDICOES ADUANEIRAS LTDA,,,,Sao Paulo,BELA VISTA,,,01311-200,SP,EDICOES AD,AV PAULISTA 1337,89372
627,1,84010662,BR,TELEMAR NORTE LESTE S/A,,,,SAO PAULO,VILA SAO FRANCISCO,,,04711-904,SP,OI,R ARQUITETO OLAVO REDIG DE CAMP 105,89382
628,1,84010663,BR,FAST SHOP S.A,,,,ALHANDRA,DISTRITO INDUSTRIAL,,,58320-000,PB,FAST SHOP,R MANOEL CESAR DE MELO,89426
629,1,84010664,BR,OFFICE TOTAL S.A.,,,,SAO PAULO,JARDIM BRASIL (ZONA SUL),,,04634-042,SP,OFFICE TOT,R ATICA 581,89468
630,1,84010665,BR,PEQUERRUCHO DE CORAÇOES LTDA ME,,,,SAO PAULO,VILA PROGREDIOR,,,05615-190,SP,PEQUERRUCH,RUA DOS TRES IRMAOS 539,89469
631,1,84010670,BR,RNY COMERC DE PURIFICADORES DE AGUA,,,,SAO JOSE DO RIO PRETO,PARQUE INDUSTRIAL,,,15076-610,SP,RNY COMERC,RUA DOUTOR JOSE JORGE CURY 240,89618
632,1,84010671,BR,BLACK BOX COMERCIO VAREJISTA,,,,FLORIANOPOLIS,ITAGUACU,,,88085-580,SC,BLACK BOX,RUA ALBERTO BECK 211,89619
633,1,84010672,BR,INTER DESPACHOS S/S LTDA.,,,,SAO PAULO,VILA OLIMPIA,,,04545-010,SP,INTER DESP,R ALEIXO GARCIA 96,89681
634,1,84010673,BR,HILTON DO BRASIL LTDA,,,,SAO PAULO,BROOKLIN NOVO,,,04578-00,SP,HILTON,AV DAS NACOES UNIDAS 12901,89791
635,1,84010674,BR,Sao Fernando Golf Club,,,,Cotia,Vila São Fernando,,,06705-500,SP,SÃO FERNAN,Av Fernando Nobre 4000,89814
636,1,84010675,BR,GRACIOSA COUNTRY CLUB,,,,CURITIBA,JUVEVE,,,80035-000,PR,GRACIOSA,AV MUNHOZ DA ROCHA 1146,89815
637,1,84010676,BR,CARBONO AG AGENCIA DE COMUNICACAO,,,,Sao Paulo,INDIANOPOLIS,,,04516-001,SP,CARBONO AG,AV ROUXINOL 1041,89816
638,1,84010680,BR,COSY ORGANIZACAO DE EVENTOS LTDA,,,,Sao Paulo,MORUMBI,,,05650-000,SP,COSY ORGAN,AV MORUMBI 4858,89900
639,1,84010681,BR,COSYNHA ALIMENTACAO LTDA,,,,SAO PAULO,MORUMBI,,,05650-001,SP,COSYNHA,AV MORUMBI 5277,89901
640,1,84010682,BR,L A LUBINA COMERCIAL LTDA,,,,Sao Paulo,CERQUEIRA CESA,,,01414-020,SP,FIGUEIRA,RUA VITORIO FASANO 61,89902
641,1,84010683,BR,DESIGN DE CONVERSAS FACILITACAO,,,,Sao Paulo,PERDIZES,,,05016-000,SP,DESIGN DE,RUA IPEROIG 749,89903
642,1,84010684,BR,PONTO CHAVE MOLAS MANUTENCAO LTDA,,,,Sao Paulo,LAPA DE BAIXO,,,04583-110,SP,PONTO CHAV,RUA MOXEI 120,89904
643,1,84010685,BR,MADIS RODBEL SOLUCOES DE PONTO,,,,EXTREMA,DOS TENENTES,,,37640-000,MG,MADIS RODB,AV LUIZ ALVES CARDOSO SOBRINHO 0405,89905
644,1,84010686,BR,WHF DESIGN E TECNOLOGIA,,,,SAO PAULO,ALTO DA BOA VISTA,,,14025-670,SP,WHF,RUA CAPITAO ALEMIO NORBER 580,90000
645,1,84010687,BR,PELLICCIOTTA BUSINESS CONSULT,,,,SANTO ANDRE,VILA HOMERO THON,,,09111-100,SP,PELLICCIOT,PRACA CAPIVARI 8,90025
646,1,84010690,BR,SHOP RODAS LTDA ME,,,,SAO PAULO,VILA SAO FRANCISCO,,,04310-030,SP,SHOP RODAS,AV DOUTOR HUGO BEOLCHI 721,90093
647,1,84010691,BR,TS ITU HOTEL EMPREENDIMENTO IMOBILI,,,,ITU,CONDOMINIO TERRAS DE SAO JOSE,,,13306-440,SP,TS ITU,AL SAO PAULO GOLF S/N,90094
648,1,84010692,BR,EMPLACA SERVICOS LTDA,,,,CIDADE INTERCAP,TABOAO DA SERRA,,,06757-020,SP,EMPLACA SE,AVENIDA INTERCAP 285,90095
649,1,84010693,BR,FLAMBOYANT ESTACIONAMENTOS,,,,GOIANIA,JARDIM GOIAS,,,74810-907,GO,FLAMBOYANT,AV JAMEL CECILIO 3300,90096
650,1,84010694,BR,MADIS RODBEL SOLUÇÕES DE PONTO,,,,SAO PAULO,ALTO DA LAPA,,,05458-001,SP,MADIS RODB,AV DIOGENES RIBEIRO DE LIMA 2346,90123
651,1,84010695,BR,ABDALA BROTHERS PROD DE VIDEOS,,,,PINHAL,CABREUVA,,,13315-000,SP,ABDALA,av das jabuticas 101,90129
652,1,84010696,BR,COSTAO DO SANTINHO TURISMO,,,,FLORIANOPOLIS,DIST. INGLESES DO RIO VERMELHO,,,88058-700,SC,COSTAO,ESTRADA VEREADOR ONILDO LEMOS 2505,90179
653,1,84010697,BR,FERNANDA L FREIXOSA FOTO,,,,SUMARE,SAO PAULO,,,01255-000,SP,FERNANDA L,AV DR ARNALDO 1516,90217
654,1,84010698,BR,AT2D MARKETING PROMO,,,,Sao Paulo,PLANALTO PAULISTA,,,04062-002,SP,AT2D MKT,AV INDIANOPOLIS 1922,90218
655,1,84010699,BR,AIG SEGUROS BRASIL SA,,,,Sao Paulo,COMPLEXO JK,,,04543-011,SP,AIG SEGURO,AV PRES JUSC KUBITSCHEK 2041,90252
656,1,84010700,BR,SQ2C SOFTWARES E SOLUCOES,,,,ALPHAVILLE,CENTRO,,,06455-000,SP,SQ2C,ALAMEDA ARAGUAIA 933 CJ84,90253
657,1,84010701,BR,SAO CARLOS GOLFE CLUBE,,,,SAO CARLOS,FAZENDA DO URSO,,,13560-970,SP,SAO CARLOS,"ROD SP 318, KM 234",90254
658,1,84010702,BR,SMYNNIUK CONSULTORIA E ASSESSO,,,,SANTO ANDREA,VILA VALPARAISA,,,09060-070,SP,SMYNNIUK,RUA TAPAJOS 47,90289
659,1,84010703,BR,GLOBAL CONSULT TECNOLOGIA E SERV LT,,,,Sao Paulo,BELA VISTA,,,01332-901,SP,GLOBAL,RUA ITAPEVA 00378 9 ANDAR,90311
660,1,84010704,BR,MDC Comércio varej de vestuario e a,,,,Sao Paulo,republica,,,01044-000,SP,MDC,"Rua sete de abril, 118 3 andar",90312
661,1,84010705,BR,LPSIS ADMINISTRACAO DE PROPRIEDADES,IMOBILIARIAS LT,,,LONDRINA,GLEBA PALHANO,,,86050-460,PR,LPSIS ADMI,AV AYRTON SENNA DA SILVA 550,90348
662,1,84010706,BR,L-LAB SERVICOOS AUTOMOTIVOS LTDA,,,,CHACARA SANTO ANTONIO,SAO PAULO,,,04713-001,SP,L-LAB SERV,RUA DA PAZ 1045,90405
663,1,84010707,BR,GPBR PARTICIPACOES LTDA.,,,,São paulo,VILA OLIMPIA,,,04546-003,SP,GYMPASS,R CASA DO ATOR 919,90406
664,1,84010708,BR,BECOMEX CONSULTORIA LTDA,,,,SAO PAULO,CERQUEIRA CESAR,,,01419-907,SP,BECOMEX,ALAMEDA SANTOS 2477,90541
665,1,84010709,BR,GRINBERG EMPREEND HOTELEIROS,,,,SOCORRO,BAIRRO DA POMPEIA,,,13960-000,SP,GRINBERG,DA POMPEIA 210,90542
666,1,84010710,BR,QSOFT-SP COMERCIO E SERV,,,,Sao Paulo,PINHEIROS,,,05407-002,SP,QSOFT,R CARDEAL ARCOVERDE 1745,90543
667,1,84010711,BR,FORSTER & FORSTER ADMINISTRADOR,,,,Sao Paulo,VILA LEOPOLDINA,,,05302-001,SP,FORSTER,R SCHILLING 413,90551
668,1,84010712,BR,HOTEIS ROYAL PALM PLAZA LTDA,,,,CAMPINAS,JD NOVA CALIFORNIA,,,13051-092,SP,ROYAL PALM,Av. Royal Palm Plaza 277,90561
669,1,84010713,BR,GLOBAL CONSULT- CONSULTORIA E SERVI,,,,PORTO ALEGRE,CENTRO,,,90010-140,RS,GLOBAL CON,R URUGUAI 300,90640
670,1,84010714,BR,FLAVIO LETTIERI COACHING EIRELI,,,,sao paulo,cambuci,,,01537-000,SP,FLAVIO LET,av lins de vasconcelos 757,90657
671,1,84010715,BR,ROBERTA GOMES DA SILVA,,,,Sao Paulo,TABOAO DA SERRA,,,06764-040,SP,A CORES,RUA JOSE MACIEL NETO 315,90668
672,1,84010716,BR,ROSANGELA GOLMIA,,,,SAO PAULO,VILA MARIA BAIXA,,,02118-010,SP,ROSANGELA,RUA TOMAS SPEERS 750,90669
673,1,84010717,BR,MORRO DO CHAPEU GOLFE CLUBE,,,,NOVA LIMA,MORRO DO CHAPEU,,,34000-001,MG,MORRO DO C,AV DAS AZALEIAS S/N,90706
674,1,84010718,BR,BARE SERIVOCES EMPRESARIAIS,,,,SAO PAULO,JARDIM PAULISTANO,,,01451-001,SP,BARE SERVI,AV BRIGADEIRO FARIA LIMA 1478,90707
675,1,84010719,BR,HAWAII GRAFICA E EDITORA LTDA,,,,SAO PAULO,JD INDEPENDENCIA,,,03223-190,SP,HAWAII,R AUGUSTO PIACENTINI 454,90791
676,1,84010720,BR,CONDOMINIO VOLUNTARIO DO,,,,BARUERI,ALPHAVILLE,,,06454-000,SP,IGUATEMI A,AL RIO NEGRO 111,90792
677,1,84010721,BR,CONDOMINO CIVIL DO SHOPPING CENTER,,,,CAMPINAS,VILA BRANDINA,,,13092-902,SP,IGUATEMI C,AV IGUATEMI 777,90793
678,1,84010722,BR,CONDOMINIO COMPLEXO IGUATEMI,,,,RIBEIRAO PRETO,VILA DO GOLF,,,14027-250,SP,IGUATEMI R,AV LUIZ EDUARDO TOLEDO 900,90794
679,1,84010723,BR,COMPLEXO IGUATEMI RIO PRETO,,,,SAO JOSE DO RIO PRETO,IGUATEMI,,,15093-340,SP,IGUATEMI S,AV JK DE OLIVEIRA 5000,90795
680,1,84010724,BR,MAGAZINE LUIZA S/A,,,,LOUVEIRA,RIO ABAIXO,,,13290-000,SP,MAGAZINE L,ROD BANDEIRANTES S/N,90801
681,1,84010725,BR,CONDOMINIO DO CATUAI SHOPPING,,,,MARINGA,PQ INDUSTRIAL BANDEIRANTES,,,87070-000,PR,CATUAI SHO,AV COLOMBO 9161,90802
682,1,84010726,BR,GRB COMERCIO DE EQUIPAMENTOS LTDA,,,,BELO HORIZONTE,BARRO PRETO,,,30190-130,MG,GRB COMERC,AV BARBACENA 58,90803
683,1,84010727,BR,JUQUEHY PRAIA HOTEL LTDA,,,,SAO SEBASTIAO,JUQUEHY,,,03575-030,SP,JUQUEHY PR,AVENIDA MAE BERNARDA 3221,90806
684,1,84010728,BR,CLARO S.A.,,,,VITORIA,CENTRO,,,29010-001,ES,CLARO S.A.,AV JERONIMO MONTEIRO 174,91097
685,1,84010729,BR,RIOMAR SHOPPING S.A,,,,RECIFE,PINA,,,51010-000,PE,RIOMAR SHO,AV ENGENHEIRO ANTONIO DE GOES 60,91188
686,1,84010730,BR,PRISMA TRADUÇÃO SIMULTANEA EIRELI,,,,SÃO BERNARDO,CENTRO,,,09720-590,SP,PRISMA,RUA BORTOLO BASSO 482,91244
687,1,84010731,BR,COMERCIAL ZATHURA MONTAGENS,,,,SÃO PAULO,SANTO ANTONIO,,,04715-005,SP,ZATHURA,AMERICO BRASILIENSE 1837,91245
688,1,84010732,BR,Alexandre Laender Delgado,,,,SAO PAULO,GRANJA JULIETA,,,0111304410,SP,ALEXANDRE,Rua Luis Correia de Melo 148,91261
689,1,84010733,BR,I B VISSECHI IMPORTACAO E EXPORTACA,,,,SAO PAULO,VILA MARIANA,,,04011-061,SP,I B VISSEC,R JOSE ANTONIO COELHO 603,91281
690,1,84010734,BR,PLANUS - INFORMATICA E TECNOLOGIA L,,,,SAO PAULO,MORUMBI,,,04794-000,SP,PLANUS -,AV NACOES UNIDAS 13797,91282
691,1,84010735,BR,BRASCIN COMERCIO E SERVIÇOS,,,,São Paulo,Cambuci,,,01539-010,SP,BRASCIN,Rua Gama Cerqueira 486,91326
692,1,84010736,BR,NELY MARIA DE SOUZA EIRELI - ME,,,,CARIACICA,CAMPO GRANDE,,,29146-140,ES,NELY,"AV MINISTRO EURICO SALLES, 2 LOJA 2",91338
693,1,84010737,BR,BERNARDINO MOLSKI 03908162807,,,,SAO PAULO,CIDADE MONCOES,,,04565-001,SP,CHAVEIRO,RUA FLORIDA 1606,91439
694,1,84010738,BR,WEST POST SERVIÇOS LTDA EPP,,,,São Paulo,Chácara Sto Antônio,,,04717003,SP,CORREIOS,Rua Alexandre Dumas,91440
695,1,84010739,BR,CENTRO DE GESTÃO DE MEIOS DE PAGTO,,,,OSASCO,CENTRO,,,06013-010,SP,SEM PARAR,RUA MINAS BOGASIAN 253,91441
696,1,84010740,BR,NEO TAGUS INDUSTRIAL LTDA,,,,SÃO PAULO,VILA LEOPOLDINA,,,05311-000,SP,TAGUS,AV MOFARREJ 00840,91451
697,1,84010741,BR,Rodrigo Pinho,,,,São Paulo,Vila São Francisco,,,04711-130,SP,RODRIGO,Av. Dr. Chucri Zaidan 1240,91571
698,1,84010742,BR,FERNANDO POLADIAN,,,,São Paulo,Vila são Francisco,,,04711-130,SP,FERNANDO,Av. Dr. Chucri Zaidan 1240,91572
699,1,84010743,BR,ICON TAXI AEREO LTDA,,,,SÃO CAETANO DO SUL,CENTRO,,,09520-010,SP,ICON,RUA JOÃO PESSOA 83,91620
700,1,84010744,BR,PHONE CARE COM. VAREJ. DE EQUI. DE,TEL. E COM. EIRELI,,,SÃO PAULO,SANTO AMARO,,,04710-220,SP,PHONE CARE,RUA DOMINGOS ANTONIO CICCONE 180,91630
701,1,84010745,BR,SCALICE ARTES GRÁFICAS LTDA,,,,SÃO PAULO,VILA PARQUE JABAQUARA,,,04321-120,SP,MZ DIGITAL,R DAS PEROBAS 192,91631
702,1,84010746,BR,KALUNGA COM. E IND. GRÁFICA LTDA,,,,SÃO PAULO,VILA ALMEIDA,,,04795-000,SP,KALUNGA,AV DAS NAÇOES UNIDAS 22540,91638
703,1,84010747,BR,LETRA NOVA COMUNICAÇÃO LTDA,,,,SÃO PAULO,SANTANA,,,02404-000,SP,LETRA,R PEDRO DOLL 269,91717
704,1,84010748,BR,AURELI & CIA LTDA,,,,SÃO PAULO,BELA VISTA,,,01310-100,SP,AURELI,AV PAULISTA 17° CJ 1707 726,91771
705,1,84010749,BR,STORBACK TECNOLOGIA COM. E SERV.,DE INFORMÁTICA LTDA,,,SÃO PAULO,SANTA CECÍLIA,,,01227-000,SP,STORBACK,Av. Angélica 11 Andar - Cj 117E 321,91778
706,1,84010750,BR,PANCROM INDUSTRIA GRAFICA LTDA,,,,SÃO PAULO,JAGUARE,,,053321-010,SP,PANCROM,AV ENG BILLINGS 2227,91857
707,1,84010751,BR,ELASTOBOR BORRACHAS E PLASTICOS,LTDA,,,SÃO PAULO,SOCORRO,,,04704-000,SP,ELASTOBOR,AV DO PINEDO 394,91867
708,1,84010752,BR,ADB EVENTOS E SERVIÇOS LTDA,,,,SÃO PAULO,CAPELA DO SOCORRO,,,04918-060,SP,ADB,R SIMAO ALVES DE FARIA 119,91886
709,1,84010753,BR,GIULIANA COMERCIO DE FLORES E,ARRANJOS LTDA,,,SAO CAETANO DO SUL,SANTO ANTONIO,,,09531-110,SP,GIULIANA,R MONTE ALEGRE 127,91887
710,1,84010755,BR,PLANUS - INFORMATICA E TECNOLOGIA L,,,,SERRA,TIMS,,,29161-384,ES,PLANUS,CEM SN,92030
711,1,84010756,BR,ACCENTURE DO BRASIL LTDA,,,,SAO PAULO,CHAC STO ANTONIO,,,04717-004,SP,ACCENTURE,ALEXANDRE DUMAS 2051,92151
712,1,84010757,BR,FEDEX BRASIL LOGISTICA E TRANSPORTE,,,,CAMPINAS,PARQUE VIRACOPOS,,,13052-448,SP,FEDEX BRAS,ROD SANTOS DUMONT (SP 075) SN,92166
713,1,84010758,BR,HUAWEI SERVICOS DO BRASIL LTDA.,,,,SOROCABA,EDEN,,,18087-220,SP,HUAWEI SER,AV JEROME CASE 2600,92167
714,1,84010760,BR,"GDX TRANSPORTES, SERVICOS AUTOMOTOR",LOCACOES E EVENTOS LTDA,,,SOROCABA,VILA BARAO,,,18065-610,SP,GDX,AVENIDA GONCALVES JUNIOR 307,92329
715,1,84010761,BR,G4S VANGUARDA SEGURANCA E VIGILANCI,LTDA,,,SAO PAULO,BELA VISTA,,,01326-010,SP,G4S,R RUI BARBOSA 70,92344
716,1,84010762,BR,SEIKI IND.COM.ECONFECÇÕES LTDA,48775255000146,,,SAO PAULO,MOOCA,,,03118-001,SP,SEIKI I,RUA PADRE RAPOSO 1015,92364
717,1,84010763,BR,CONDOMINIO SHOPPING PATIO CHAPECO,,,,CHAPECO,LIDER,,,89805-203,SC,SHOPPING P,AV FERNANDO MACHADO 4000,92419
718,1,84010764,BR,CISA TRADING S/A,,,,VITORIA,SANTA LUCIA,,,29056-250,ES,CISA,AV NOSSA SENHORA DA PENHA 699,92490
719,1,84010765,BR,SOCIEDADE MICHELIN DE PARTICIPACOES,,,,CAMPO GRANDE,RIO DE JANEIRO,,,23040150,RJ,MICHELIN,"ESTRADA DA CACHAMORRA, 5000",92509
720,1,84010766,BR,CONDOMINIO DO SHOPPING DA SERRA,,,,CAXIAS DO SUL,INDUSTRIAL,,,95110690,RS,CONDOMINIO,R RST 453,92522
721,1,84010767,BR,RIOMAR SHOPPING FORTALEZA S.A,,,,RECIFE,PINA,,,51010-000,PE,RIOMAR,"AV ENGENHEIRO ANTONIO 60, SALA 2001",92671
722,1,84010768,BR,FACEBOOK SERVICOS ONLINE DO BRASIL,,,,SAO PAULO,ITAIM BIBI,,,04542-000,SP,FACEBOOK,LEOPOLDO COUTO DE MAGALHAES JR 700,92672
723,1,84010769,BR,GOOGLE BRASIL INTERNET LTDA.,,,,SAO PAULO,ITAIM BIBI,,,04538-133,SP,GOOGLE,AV BRIGADEIRO FARIA LIMA 3477,92673
724,1,84010770,BR,VSTM Comercio de Veiculos Ltda,,,,71608-900,SHIS AREA ESPECIAL LOTE UC4.033 LAG,,,71608-900,DF,PC EUROBIK,AER INT. DE BSHIS AREA ESRASILI S/N,92715
725,1,84010771,BR,SUBCONDOMINIO SHOPPING CENTER RIOMA,FORTALEZA,,,FORTALEZA,PAPICU,,,60176-065,CE,SUBCONDOMI,DESEMBARGADOR LAURO NOGUEIRA 1500,92719
726,1,84010772,BR,QUITERIA MARIA DE JESUS SILVA,,,,CURITIBA,CENTRO,,,,SP,QUITERIA,R RIACHUELO 464,92806
727,1,84010773,BR,PROAUTO IND QUIMICA LTDA EPP,,,,SANTO ANDRÉ,PARQUE CAPUAVA,,,09270-160,SP,PROAUTO,AV JOÃO DO PRADO 300,92825
728,1,84010774,BR,PANIFICADORA E CONFEITARIA,COVADONGA LTDA,,,São Paulo,Vila Madalena,,,05448-000,SP,PANIFICADO,Rua Nazaré Paulista,92857
729,1,84010775,BR,UPS SC S LOGÍSTICA (BRASIL) LTDA,,,,Cajamar,Vila Nova,,,07750-020,SP,UPS,Av. Dr. Antonio João Abdalla 260,92907
730,1,84010776,BR,PSI7 PRINTING SOLUTIONS,INTERNET 7 SA,,,São Paulo,JARDINS,,,03223-110,SP,PSI7,RUA SECUNDINO DOMINGUES 300,92953
731,1,84010777,BR,ATHROS AUDITORES INDEPENDENTES,,,,SANTO ANDRE,CENTRO,,,09010-130,SP,ATHROS,"R XAVIER DE TOLEDO 181, SALA: 94",93015
732,1,84010778,BR,"356 DISTRIBUIDORA, IMPORTADORA",E EXPORTADORA EIRELI,,,JOINVILLE,GLÓRIA,,,89216-215,SC,356,EVARISTO DA VEIGA 101,93106
733,1,84010779,BR,Quinta do Marques Restaurante,e Lanches LTDA,,,SÃO ROQUE,SÃO ROQUE,,,18130-970,SP,QUINTA,Rua Fernando Pessoa 345,93149
734,1,84010780,BR,TH COMERCIO DE RELOGIOS EIRELI,,,,SÃO PAULO,CIDADE JARDIM,,,05676-120,SP,TH,AV MAGALHÃES DE CASTRO 12000,93150
735,1,84010781,BR,HP BRASIL INDUSTRIA E COMERCIO,DE EQUIPAMENTOS ELETRONICOS LTDA,,,ITAPOÁ,Jaguaruna,,,89249-000,SP,HP,Estrada Jose Alves 271,93296
736,1,84010782,BR,ECONET PUBLICAÇÕES PERIODICAS,,,,CURITIBA,Bacacheri,,,82510-230,PR,ECONET,Rua Gago Coutinho 533,93368
737,1,84010783,BR,INSTITUTO DE DESENVOLVIMENTO,E GESTÃO - IDG,,,RIO DE JANEIRO,Centro,,,20081-262,RJ,MUSEU,Rua Praça Mauá 1,93369
738,1,84010784,BR,4CORP ARQUITETURA CORPORATIVA,,,,SÃO PAULO,JARDIM PAULISTANO,,,01452-910,SP,4CORP,Av. Brigadeiro Faria Lima 1931,93420
739,1,84010785,BR,VANESSA CRISTINA CONTE EVANGELISTA,,,,SÃO PAULO,VILA MANGALOT,,,05133-004,SP,VANESSA,R JOAQUIN OLIVEIRA FREITAS 1691,93482
740,1,84010786,BR,CB NEWS EDITORA,,,,SÃO PAULO,VILA NOVA,,,04537-080,SP,CB NEWS,RUA COMENDADOR MIGUEL CALFAT 128,93505
741,1,84010787,BR,Pit Lane Acessórios Esportivos Eire,,,,são paulo,interlagos,,,04777-000,SP,PIT LANE,AV INTERLAGOS 6392,93506
742,1,84010788,BR,Comprova.com Informatica Ltda,,,,são paulo,Vila olimpia,,,04547-005,SP,COMPROVA,"Gomes de Carvalho, 1306",93534
743,1,84010789,BR,Gabriel Rossi Fanti,,,,São Bernardo do Campo,Rudge ramos,,,09635-010,SP,GABRIEL,Av. Lauro Gomes 5901,93593
744,1,84010790,BR,SALVADOR GESTAO DE,EMPREENDIMENTOS,,,salvador,caminho das arvores,,,41820-021,BA,SALVADOR,AV TANCREDO NEVES 3133,93632
745,1,84010791,BR,Conselho reg de eng e agronomia,,,,São Paulo,Vila Olimpia,,,,SP,CONSELHO,AV BRIGADEIRO FARIA LIMA 1059,93633
746,1,84010792,BR,SUZAQUIM INDUSTRIAS QUIMICAS LTDA,,,,São Paulo,Chácara Ceres,,,08655-243,SP,SUZAQUIM,Rua Raphael da Anunciação Fonte 349,93647
747,1,84010793,BR,BROS PRODUCTIONS PRODUÇÕES,DE VIDEOS E EVENTOS LTDA,,,Jundiaí,Ch. aeroporto,,,13212-010,SP,BROS,Av.Emilio Antonon 111,93648
748,1,84010794,BR,E2 Validaçao de Negocios LTDA,,,,São Paulo,Alto de Pinheiros,,,05466-000,SP,E2,Av arruda Botelho 483,93649
749,1,84010795,BR,HOTEL PORTOBELLO S/A,,,,Mangaratiba,km 101,,,23860-000,RJ,HOTEL,Rodovia Rio Santos 434,93733
750,1,84010796,BR,Juntos Estrategia de Gente e Gestão,Eirelli,,,São Paulo,Vila Mariana,,,04019-000,SP,JUNTOS,Rua Dr Mario Cardim ap 12 376,93734
751,1,84010797,BR,ANGELITA SORLANDO LIMA,,,,SÃO PAULO,VILA POMPEIA,,,05025-000,SP,ANGELITA,R CAJABA 170,93752
752,1,84010798,BR,RIGEMA COMERCIO DE PRODUTOS ALIMENT,,,,CAMPINAS,CHACARA GRAMADO,,,13101-680,SP,RIGEMA,AL DOS VIDOEIROS 455,93757
753,1,84010799,BR,4TAKES INDUTRIA COMERCIO,SERVIÇOS E PARTICIPAÇÕES LTDA,,,São paulo,São Paulo,,,04313-200,SP,4 TAKES,Rua Botelho 145,93758
754,1,84010800,BR,Cetesb Companhia Ambiental do estad,deSão Paulo,,,São Paulo,Pinheiros,,,05459-900,SP,CETESB,Av. Prof. Frederico Hermann Jún 345,93831
755,1,84010801,BR,DACHSER BRASIL LOGISTICA LTDA,,,,santos,Santos,,,11013-151,SP,DACHSER,Amador Bueno 333,93853
756,1,84010802,BR,Healthy Bites Atelier Comércio,de Alimentos Ltda,,,SÃO PAULO,sÃO PAULO,,,04537-904,SP,HEALTHY,Rua Clodomiro Amazonas 1158,93924
757,1,84010803,BR,Transportadora Talita Ltda.,,,,São Paulo,Vila Agua funda,,,04155-170,SP,TRANSPORTA,Rua Dona Amelia Rufina 140,93925
758,1,84010804,BR,BRIDGESTONE DO BRASIL INDUSTRIA,E COMERCIO LTDA,,,santo andre,Casa branca,,,09015-901,SP,BRIDGESTON,AV QUEIROS DOS SANTOS 1717,93926
759,1,84010805,BR,AFAN MULTI MARCAS COMERCIO,DE AUTOMOVEIS LTDA,,,CURITIBA,SEMINARIO,,,80740-000,PR,AFAN MULTI,GENERAL MARIO TOURINHO 81,93967
760,1,84010806,BR,Star Comunicação e Serviços Ltda,,,,betim,paulo camilo,,,32667562,MG,STAR,Av. Raimundo Marçal de Melo 665,93968
761,1,84010807,BR,Moveis Ricco LTDA,,,,São Paulo,são paulo,,,03024-010,SP,MOVEIS,Rua Cachoeira 50,93997
762,1,84010810,BR,EPIC INOVAÇÃO TRANSPORTES DE,VEÍCULOS IMPORTADOS LTDA,,,São Paulo,Prq novo mundo,,,02180-080,SP,EPIC,R CABO ROMEU 134,94125
763,1,84010816,BR,PACI E ROCHA LTDA,,,,Campinas,CAMBUI,,,13024-500,SP,PACI,RUA ANA NERI 33,94272
764,1,84010817,BR,EDP GRID GESTÃO DE REDES,INTELIGENTES DE DISTRIBUIÇÃO S.A,,,São paulo,São Paulo,,,04547-006,SP,EDP,Rua Gomes de Carvalho 1996,94301
765,1,84010818,BR,BGMG GERADORES COMERCIO,E SERVICOS EIRELI,,,Rio de Janeiro,rocha,,,20975-000,RJ,BGMG,R DOUTOR GARNIER 315,94302
766,1,84010820,BR,Brazil Trading LTDA,,,,Salto,Industrial,,,13326-800,SP,BRAZIL,Rodovia Santos Dumont km38,94420
767,1,84010821,BR,Live Now Produções e Eventos Eireli,,,,São caetano do Sul,São caetano,,,09550-050,SP,LIVE,Rua Edu chaves 1860,94421
768,1,84010822,BR,GNV AROEIRAS LTDA,,,,ARARAQUARA,JARDIM AROEIRAS,,,14800-656,SP,IGÁS,AV AROEIRAS 45,94422
769,1,84010823,BR,SINERGAS GNV DO BRASIL LTDA,,,,São Paulo,Vila Anastacio,,,05092-030,SP,ASPRO,R BERNARDO GUIMARAES 92,94423
770,1,84010824,BR,C W CONTROL COM. DE CONTROLES,E AUTOMAÇÃO DE SISTEMAS,,,VARGEM GRANDE,RECANTO DA JANDAIA,,,06730-000,SP,CONTROL,ESTR DA JANDAIA 40,94427
771,1,84010825,BR,GLOBO COMUNICAÇÃO E PARTICIPAÇÕES,,,,Rio de Janeiro,Tijuca,,,22640101,SP,GLOBO,AV DAS AMERICAS 1650,94432
772,1,84010826,BR,TECBRAS ASSISTENCIA TÉCNICA,DE PEÇAS,,,São Paulo,Vila Cruzeiro,,,04727-900,SP,TECBRAS,RUA BRAGANÇA PAULISTA 128,94443
773,1,84010827,BR,CAT DEALERS PRODUÇÕES ARTÍSTICAS,LTDA,,,rio de janeiro,barra da tijuca,,,22640-904,RJ,DEALERS,Avenida das Américas 500,94456
774,1,84010828,BR,FAST SOLUÇÕES AMBIENTAIS,EIRELI,,,São João da Boa Vista,rivieira de São João,,,13874-788,SP,FAST,AV. DR. DURVAL NICOLAU 2353,94457
775,1,84010829,BR,Condomínio Pátio Victor Malzoni,,,,São Paulo,Vila Olimpia,,,04538-133,SP,PATIO,Av Brigadeiro Faria Lima 3477,94458
776,1,84010830,BR,Hewlett-Packard Brasil Ltda,,,,São Paulo,Barueri,,,06454-000,SP,HEWLETT,Alameda Rio Negro 750,94483
777,1,84010831,BR,Pedro Henrique de Rezende Gabrioli,Faria,,,São Paulo,Brooklin,,,04559-912,SP,PEDRO,Av Portugal 600,94489
778,1,84010832,BR,AZ SERVICOS DE DESENVOLVIMENTO,E TECNOLOGIA LTDA,,,São Paulo,Jardim Europa,,,01441-000,SP,AZ,Al. Gabriel Monteiro da Silva 135,94518
779,1,84010835,BR,PALETA PINTURA E PROPAGANDA LTDA,,,,Joinville,Industrial,,,892195-300,SP,PALETA,Dona Francisca Ave 6000,94583
780,1,84010836,BR,ILHA AZUL TRANSPORTES EIRELLI,,,,São Paulo,Socorro,,,04747-001,SP,ILHA,Rua Peri Peri 344,94621
781,1,84010837,BR,NBS Informática LTDA,,,,Florianópolis,KM 05,,,88032-005,SP,NBS,ROD JOSE CARLOS DAUX 5500,94622
782,1,84010838,BR,FAST SOLUÇÕES AMBIENTAIS – EIRELI,,,,São João da Boa Vista,Rivieira de São João,,,13874-788,SP,FAST,AV. DR. DURVAL NICOLAU 2353,94623
783,1,84010839,BR,FCS Clínica Médica LTDA,,,,São Paulo,Itaim Bibi,,,04576-020,SP,FCS,Rua George Ohm 206,94624
784,1,84010840,BR,Andre Producoes de Eventos ME- Ltda,,,,São Paulo,Vila Sônia,,,05634-160,SP,ANDRE,Rua David Matarasso 234,94625
785,1,84010841,BR,AUTO POSTO COLEGINHO LTDA,,,,Jacareí,Vila Zeze,,,12310-660,SP,COLEGINHO,RODOVIA NILO MAXIMO 400,94636
786,1,84010842,BR,ABB LTDA,,,,Aparecidinha,Aparecidinha,,,18087-125,SP,ABB,Rod Sen Jose Ermirio de Moraes SN,94637
787,1,84010844,BR,SRG EVENTOS SONORIZAÇÃO E,ILUMINAÇÃO,,,São Paulo,Agua rasa,,,03184-080,SP,SRG,Rua Barretos 527,94642
788,1,84010845,BR,Associação Master da Grama,,,,São Paulo,Itupeva,,,13295-000,SP,MASTER,Rodovia SP 324,94652
789,1,84010846,BR,PRISMA EVENTOS LTDA,,,,SANTO ANDRE,JARDIM DO SOL,,,09010-100,SP,PRISMA EVE,AL POROROCA 241,94653
790,1,84010847,BR,SINERGAS GNV DO BRASIL PR LTDA,,,,Campo Largo,Vila Dom Pedro,,,83607-260,PR,SINERGAS,R BERNARDO GUIMARAE 500,94668
791,1,84010848,BR,HNR Soluções em Gestão,"de Risco, Prev. e Perdas LTDA",,,São Paulo,São Paulo,,,02520-100,SP,HNR,Av. Casa Verde 1800,94675
792,1,84010849,BR,Ishikawa Sistens Serviços de Limpez,em Geral LTDA,,,São Paulo,Vila da saúde,,,04142-050,SP,ISHIKAWA,Rua Traituba 290,94685
793,1,84010850,BR,EDP SAO PAULO DISTRIBUICAO DE ENERG,,,,SAO PAULO,VILA OLIMPIA,,,04547-006,SP,EDP SAO PA,RUA GOMES DE CARVALHO 1996,94901
794,1,84010851,BR,MOVE MARKETING DIGITAL LTDA,,,,São José dos Campos,Trinta e um de Março,,,12237-010,SP,MOVE,R ICATU,94953
795,1,84010852,BR,VICTOR ELEUTERIO COSTA,,,,São Paulo,Pinheiros,,,05415-040,SP,VICTOR,Rua Mateus Grou 378,94983
796,1,84010853,BR,Maria Bolo Doçaria Ltda,,,,São Paulo,Moema,,,04522-034,SP,MARIA BOLO,rua Gaivota 1409,94984
797,1,84010854,BR,BRICS CERTIFICACOES DE SISTEMAS,DE GESTÃO,,,São Paulo,Centro,,,07012-020,SP,BRICS,R DOUTOR RAMOS AZEVEDO 569,94985
798,1,84010855,BR,FUMCAD FUNDO MUN DIR CRIANCA ADOLES,,,,SAO PAULO,CENTRO,,,1009-000,SP,FUMCAD,LIBERO BADARO 119,94986
799,1,84010856,BR,GREEN TECNOLOGIA E SERVIÇOS LTDA,,,,Rio de Janeiro,Centro,,,20030-012,RJ,GREEN,Rua Araújo Porto Alegre 71,95004
800,1,84010857,BR,Associação Brasileira de Engenharia,,,,São Paulo,Aclimação,,,04109-070,SP,AEA,Rua Salvador Correa 80,95005
801,1,84010858,BR,VSTM COMERCIO DE VEICULOS S/A,,,,GOIANIA,RESIDENCIAL ALPHAVILLE FLAMBOYANT,,,74884-527,GO,VSTM,AVENIDA  ALPHAVILLE FLAMBOYANT 3755,95048
802,1,84010859,BR,SINDICATO DOS COMERCIARIOS DE SAO P,,,,SAO PAULO,CENTRO,,,01049-000,SP,SINDICATO,R FORMOSA 89,95068
803,1,84010860,BR,SEGUROS SURA S/A,,,,São Paulo,Cidade Monções,,,04571-170,SP,SURA,AV. NACOES UNIDAS 12995,95069
804,1,84010861,BR,Colliers International Rems Brasil,Administração Imobiliária LTDA.,,,São Paulo,Chác. Sto Antônio,,,04794-000,SP,COLLIERS,Av. das Nações Unidas 14171,95165
805,1,84010862,BR,RAFAEL DO CARMO GRIZOTTO CATELAN,,,,Caieiras,Caieiras,,,07713-020,SP,RAFAEL,RUA MARILIA 154,95166
806,1,84010863,BR,GS Saneamento Ambiental Serviços,LTDA,,,São Paulo,Santo Amaro,,,04504-002,SP,GS,Av Vereador José Diniz 1628,95167
807,1,84010864,BR,INTEGRE TI COMERCIO E SERVICOS,DE INFORMATICA LTDA,,,BARUERI,BARUERI,,,06455906,SP,INTEGRE TI,AL ARAGUAIA 2044,95168
808,1,84010866,BR,UNITY VISTORIAS LTDA,,,,Vitória,Monte Belo,,,29053-315,ES,UNITY,RUA CHAFIC MURAD 1100,95175
809,1,84010867,BR,Wemake Organização de Eventos,Corporativos LTDA.,,,São Paulo,Tatuapé,,,03311-000,SP,WEMAKE,"Rua Apucarana, 326",95177
810,1,84010868,BR,Bluerocket Participações e Serviços,,,,São Paulo,Vila Andrade,,,05715-010,SP,PONTUS,Rua Dep Sussumu Hirata CJ 154,95178
811,1,84010869,BR,NETLEX TECNOLOGIA LTDA.,,,,Belo Horizonte,Funcionários,,,30130-156,MG,NETLEX,Rua Pernambuco CJ901,95179
812,1,84010870,BR,INSTITUTO TENIS,,,,BARUERI,JARDIM CALIFORNIA,,,06409-020,SP,INSTITUTO,R MARI 100,95204
813,1,84010871,BR,AUTOMOBI SERVICOS DIGITAIS LTDA,,,,SAO PAULO,BELENZINHO,,,03302-030,SP,AUTOMOBI,R SERRA DA MANTIQUEIRA 41,95232
814,1,84010872,BR,YMT Group S/S Ltda,,,,São Paulo,Vila Pirajussara,,,05786-120,SP,YMT,Rua Jacaratinga 208,95233
815,1,84010873,BR,Felipe de Mattos Muci 29973039884,,,,São Paulo,Vila Cruzeiro,,,04726-240,SP,(MEI),Rua João Vitorino de Souza 250,95234
816,1,84010874,BR,BECOMEX CONSULTORIA LTDA,,,,JOINVILLE,SANTO ANTONIO,,,89218-105,SP,BECOMEX,SANTOS DUMONT 935,95240
817,1,84010875,BR,PORTO SEGURO SAÚDE OCUP E SEG TRAB,,,,SÃO PAULO,RIO BRANCO,,,01205-905,SP,PORTO SEGU,AVENIDA RIO BRANCO 1489,95270
818,1,84010876,BR,DIAGNÓSTICOS DA AMÉRICA S.A,,,,São Paulo,Jardim America,,,01431-001,SP,DIAGNOSTIC,Av Brasil 1802,95306
819,1,84010877,BR,Diagnósticos da América S.A,,,,Barueri,Alphaville,,,06455-010,SP,DIAGNOSTIC,Av Jurua 434,95307
820,1,84010878,BR,EXPERT & CIA CONSULTORES,ASSOCIADOS LTDA,,,São Bernardo do Campo,Centro,,,09750730,SP,EXPERT,Rua José Versolato 111,95493
821,1,84010879,BR,ASSESSORIA DE COMUNICACAO,- ESTRATEGIAS INDEX LTDA,,,São Paulo,Cerqueira César,,,01412-100,SP,ASSESSORIA,R AUGUSTA 2840,95502
822,1,84010880,BR,PONTOMAIS TECNOLOGIA S/A,,,,Curitiba,COND LA DEFENSE ED,,,80730-000,PR,PONTOMAIS,R PADRE ANCHIETA conj 81 2310,95527
823,1,84010881,BR,Maraviglia & Maraviglia LTDA.,,,,São Paulo,Indianópolis,,,04089-001,SP,MARAVIGLIA,Alameda dos Maracatins 654,95674
824,1,84010882,BR,Index Design criação e Editoração L,,,,São Paulo,Cerqueira César,,,01412-100,SP,INDEX,r augusta 2840,95689
825,1,84010883,BR,CENOFISCO EDITORA DE PUBL.,TRIBUTARIAS LTDA,,,São Paulo,Bela vista,,,01311-200,SP,CENOFISCO,AV PAULISTA 1337,95757
826,1,84010884,BR,H&M Tecnologia da Informação Ltda,,,,São Paulo,Pinheiros,,,05422001,SP,H&M,Rua Dos Pinheiros 870,95759
827,1,84010885,BR,Fibra Negócios e Serviços LTDA,,,,Serra,Bairro de Fátima,,,29160-750,SP,FIBRA,Rua Rui Barbosa 214,95767
828,1,84010886,BR,Visto-Car Butanta Inspeçao veicular,,,,São Paulo,Butanta,,,05501-040,SP,VISTO,R Desem Armando Fairbanks 204,95784
829,1,84010887,BR,QUINTA DO MARQUES ANHANGUERA,RESTAURANTE E LANCHES LTDA,,,Campinas,Jardim Eulina,,,13063-080,SP,QUINTA,Rua Antonio Tepedino Pagano 20,95867
830,1,84010888,BR,INSTITUTO NACIONAL DA PROPRIEDADE,INDUSTRIAL,,,Rio de Janeiro,Ed White Martins,,,20090-910,RJ,INSTITUTO,RUA MAYRINK VEIGA 9,95980
831,1,84010889,BR,TOP PRESS MONITORAMENTO,,,,SAO PAULO,MIRANDOPOLIS,,,04045-003,SP,TOP CLIP,AV JABAQUARA 1771,95982
832,1,84010890,BR,CHOPERIA E RESTAURANTE GREY LTDA,,,,São Paulo,Itaim Bibi,,,04530-000,SP,CHOPERIA,Rua Dr. Renato Paes de Barros 65,96010
833,1,84010891,BR,EMILIANO RJ EMPREENDIMENTOS,E PARTICIPACOES HOTELEIRAS,,,Rio de Janeiro,Copacabana,,,22070-001,RJ,EMILIANO,"Av. Atlântica, 3804",96095
834,1,84010892,BR,Emiliano Empreendimentos e Particip,Hoteleiras Sociedade LTDA,,,São Paulo,Cerqueira César,,,01426-000,SP,EMILIANO,Rua Oscar Freire 384,96097
835,1,84010893,BR,PIRELLI COMERCIAL DE PNEUS BRASIL L,,,,CAMACARI,MASSARANDUBA,,,42811-054,BA,PIRELLI,"V PARAFUSO KM13,5",96122
836,1,84010894,BR,GRAMADO MALL,,,,CAMPINAS,SITIO RECR GRAMADO,,,13101-680,SP,GRAMADO MA,AL DOS VIDOEIROS 455,96140
837,1,84010895,BR,HEWLETT-PACKARD BRASIL LTDA,,,,LOUVEIRA,SANTO ANTONIO,,,13290-000,SP,HEWLETT-PA,ESTRADA CRUZ GRANDE 1000,96208
838,1,84010896,BR,PANALPINA LTDA,,,,SAO PAULO,CIDADE MONCOES,,,04.576-010,SP,DSV AIR &,AV JORNALISTA ROBERTO MARINHO 85,96209
839,1,84010897,BR,ASSOCIACAO E-BUSINESS PARK,,,,SAO PAULO,LAPA,,,05069-010,SP,ASSOCIACAO,R WERNER SIEMENS 111,96223
840,1,84010898,BR,MOBIMAX IMPORTACAO E EXPORTACAO LTD,,,,Sao Paulo,Moinho Velho,,,04285-040,SP,MOBIMAX,Rua Belgrado 65,96235
841,1,84010899,BR,BULL LTDA,,,,SAO PAULO,BROOKLIN PAULISTA,,,04578-910,SP,BULL LTDA,AVENIDA DAS NACOES UNIDAS 12901,96239
842,1,84010900,BR,SOMPO SEGUROS S.A.,,,,SAO PAULO,VILA MARIANA,,,04013-001,SP,SOMPO SEGU,R CUBATAO 320,96242
843,1,84010901,BR,TILIBRA PRODUTOS DE PAPELARIA LTDA,,,,BAURU,V.CARDIA,,,17013-900,SP,TILIBRA,RUA AIMORES 6-9,96258
844,1,84010902,BR,EXODUS CONSULTING LTDA,,,,CARAGUATATUBA,JARDIM PORTO NOVO,,,11669-410,SP,EXODUS,R AGNALDO SANTANA 186,96259
845,1,84010903,BR,Lee Hecht Harrison Consultoria,em Recursos Humanos Ltda,,,São Paulo,Cidade Monções,,,04571-150,SP,LHH,Praça General Gentil Falcão 108,96323
846,1,84010904,BR,PTFA COMERCIO DE FLORES LTDA,,,,SAO PAULO,VILA NOVA CONCEICAO,,,04537-040,SP,PTFA,RUA SILVA CORREIA 194,96337
847,1,84010905,BR,NOVA RIOTEL EMPREENDIMENTOS,HOTELEIROS LTDA,,,RIO DE JANEIRO,COPACABANA,,,22070-002,RJ,NOVA RIOTE,AV ATLANTICA 4240,96338
848,1,84010906,BR,S A DE SA MIDIA,,,,BRAGANCA PAULISTA,CONDOMINIO JARDIM DAS PALMEIRAS,,,12924-300,SP,MOTIV DESI,AVENIDA DOS CEDROS 457,96344
849,1,84010907,BR,MUNICIPIO DE MOGI-GUACU,,,,MOGI-GUACU,CENTRO,,,13840-061,SP,MOGI-GUACU,R HENRIQUE COPPI 200,96402
850,1,84010908,BR,CARVALHO HOSKEN HOTELARIA LTDA,,,,RIO DE JANEIRO,JACAREPAGUÁ,,,22775-040,RJ,CARVALHO H,"Avenida Carlos Zara 505, LOT 1",96405
851,1,84020001,BR,Rolf Bottger,,,,SAO PAULO,,,,04506-002,SP,ROLF BOTTG,Av. Santo Amaro 7194,44548
852,1,84020014,BR,ASSOCIACAO BRASILEIRA DO VEICULO -,,,,VILA CONGONHAS,,,,04612002,SP,ASSOCIACAO,RUA BARONESA DE BELA VISTA 675,56827
853,1,84020043,BR,Departamento de Transito do Estado,,,,Rio de Janeiro,,,,20071004,RJ,DEPARTAMEN,Av. Presidente Vargas 817,82237
854,1,84020066,BR,UNIQUE GARDEN EMPREENDIMENTOS HOTEL,INDUSTRIA E PARTICIPACOES LTDA.,,,MAIRIPORA,,,,07600-000,SP,UNIQUE GAR,EST LARAMARA,88385
855,1,84030000,BR,Vaneska Tech,,,,São Paulo,Santo Amaro,,,04709-111,SP,VANESKA TE,Rua Henri Dunant 1383,44549
856,1,84030001,BR,Tatiana Biasetton,,,,São Paulo,Santo Amaro,,,04709-111,SP,TATIANA,Rua Henri Dunant 1383,44550
857,1,84030002,BR,Diego Lopez,,,,São Paulo,Santo Amaro,,,04709-111,SP,DIEGO LOPE,Rua Henri Dunant 1383,44551
858,1,84030003,BR,Matthias Brück,,,,São Paulo,Santo Amaro,,,04709-111,SP,MATTHIAS B,Rua Henri Dunant 1383,44555
859,1,84030005,BR,Thilo Straub,,,,São Paulo,Santo Amaro,,,04709-111,SP,THILO STRA,Rua Henri Dunant 1383,53876
860,1,84030006,BR,Leandro Rodrigues,,,,São Paulo,Santo Amaro,,,04709-111,SP,LEANDRO RO,Rua Henri Dunant 1383,53877
861,1,84030007,BR,Leandro Giacon,,,,São Paulo,Santo Amaro,,,04709-111,SP,LEANDRO GI,Rua Henri Dunant 1383,53878
862,1,84030008,BR,Adriana Barreto,,,,São Paulo,Santo Amaro,,,04709-111,SP,ADRIANA BA,Rua Henri Dunant 1383,53879
863,1,84030009,BR,Carmen Karweina,,,,São Paulo,Santo Amaro,,,04709-111,SP,CARMEN KAR,Rua Henri Dunant 1383,53880
864,1,84030010,BR,Deise dos Santos Silva,,,,São Paulo,Santo Amaro,,,04709-111,SP,DEISE SILV,Rua Henri Dunant 1383,53881
865,1,84030011,BR,Rosana da Silva Vezzaro,,,,São Paulo,Santo Amaro,,,04709-111,SP,ROSANA DA,Rua Henri Dunant 1383,53882
866,1,84030012,BR,Michael Seubert,,,,São Paulo,Santo Amaro,,,04709-111,SP,MICHAEL SE,Rua Henri Dunant 1383,53883
867,1,84030013,BR,Fernando Pongitor,,,,São Paulo,Santo Amaro,,,04709-111,SP,,Rua Henri Dunant 1383,53884
868,1,84030014,BR,Gustavo Gozzi Stein,,,,São Paulo,Santo Amaro,,,04709-111,SP,GUSTAVO ST,Rua Henri Dunant 1383,53885
869,1,84030015,BR,Rafael Galdino Mendes,,,,São Paulo,Indianopolis,,,04515-001,SP,RAFAEL GAL,AV Sabia 667,53886
870,1,84030016,BR,Alesandra Ignaszewski,,,,São Paulo,Santo Amaro,,,04709-111,SP,ALESANDRA,Rua Henri Dunant 1383,53887
871,1,84030017,BR,Juliana Cavole Lauro,,,,São Paulo,Santo Amaro,,,04709-111,SP,JULIANA LA,Rua Henri Dunant 1383,53888
872,1,84030018,BR,Hildo de Assis Arnaud Filho,,,,João Pessoa,João Pessoa,,,58032-090,PB,HILDO DE A,Rua Antonio Rabelo Junior 225,53889
873,1,84030019,BR,Flavio Hideaki Miyamoto,,,,São Paulo,Santo Amaro,,,04709-111,SP,FLAVIO MIY,Rua Henri Dunant 1383,53890
874,1,84030020,BR,Inga Bloomfield van der Broocke,,,,São Paulo,Santo Amaro,,,04709-111,SP,INGA BLOOM,Rua Henri Dunant 1383,53891
875,1,84030021,BR,Alvaro Leornado Quiroz Villardi,,,,São Paulo,Santo Amaro,,,04709-111,SP,ALVARO QUI,Rua Henri Dunant 1383,53892
876,1,84030022,BR,Heinz Moreira,,,,São Paulo,Santo Amaro,,,04709-111,SP,HEINZ MORE,Rua Henri Dunant 1383,53893
877,1,84030023,BR,James Eastwood,,,,São Paulo,Santo Amaro,,,04709-111,SP,JAMES EAST,Rua Henri Dunant 1383,53894
878,1,84030024,BR,José Antonio Marçal,,,,São Paulo,Santo Amaro,,,04709-111,SP,JOSÉ ANTON,Rua Henri Dunant 1383,53895
879,1,84030025,BR,Rodrigo Soares Silva Rosa,,,,São Paulo,Santo Amaro,,,04709-111,SP,RODRIGO SO,Rua Henri Dunant 1383,53896
880,1,84030026,BR,Milena Albisser,,,,São Paulo,Santo Amaro,,,04709-111,SP,MILENA ALB,Rua Henri Dunant 1383,53897
881,1,84030027,BR,Yole Garcia Praxedes,,,,São Paulo,Santo Amaro,,,04709-111,SP,YOLE GARCI,Rua Henri Dunant 1383,53898
882,1,84030028,BR,Mariana Romero,,,,São Paulo,Santo Amaro,,,04709-111,SP,MARIANA RO,Rua Henri Dunant 1383,53899
883,1,84030029,BR,Flavio Soares,,,,São Paulo,Santo Amaro,,,04709-111,SP,FLAVIO SOA,Rua Henri Dunant 1383,53900
884,1,84030030,BR,Bernardo Gellhaus,,,,São Paulo,Santo Amaro,,,04709-111,SP,BERNARDO G,Rua Henri Dunant 1383,55712
885,1,84030031,BR,WERNER Schaal,,,,São Paulo,Santo Amaro,,,04709-111,SP,WERNER,Rua Henri Dunant 1383,56067
886,1,84030032,BR,PRISCILA BOSCARINO,,,,SAO PAULO,VILA SAO FRANCISCO,,,04711130,SP,PRISCILA B,RUA DR. CHUCRI ZAIDAN 1240 - 25a,56565
887,1,84030033,BR,Giulia Alves Andrade,,,,SAO PAULO,VILA SAO FRANCISCO,,,04583110,SP,,Av. Dr. Chucri Zaidan 1240,57042
888,1,84030035,BR,Felipe Saraiva,,,,Sao Paulo,Morumbi,,,04711130,SP,FELIPE,Av. Dr. Chucri Zaidan' 1240,57725
889,1,84030040,BR,MARINA ZANETTI,,,,Sao Paulo,Vila São Francisco,,,04583110,SP,MARINA ZAN,Av. Dr. Chucri Zaidan 1240,83931
890,1,84030041,BR,LETICIA APARECIDA,,,,Sao Paulo,Vila São Francisco,,,04583110,SP,LETICIA AP,Av. Dr Chucri Zaidan 1240,83932
891,1,84030042,BR,MELCA MESQUITA,,,,Sao Paulo,Sao Paulo,,,04583-110,SP,MELCA MESQ,Av. Dr Chucri Zaidan 1240,83944
892,1,84030045,BR,ISABELLA NETO,,,,SAO PAULO,MORUMBI,,,04711-130,SP,,AV DR CHUCRI ZAIDAN 1240,84274
893,1,84030050,BR,ANDREIA ROCHA,,,,SÃO PAULO,MORUMBI,,,04711-130,SP,ANDREIA RO,AV. CHUCRI ZAIDAN 1240,86270
894,1,84030055,BR,RODRIGO FONSECA,,,,SAO PAULO,Jardim Prudencia,,,04364-030,SP,RODRIGO FO,Rua das Flechas Apt 127 649,88383
895,1,84030060,BR,SHAWAN RUIZ,,,,SAO PAULO,MORUMBI,,,04711-130,SP,SHAWAN RUI,AV DR CHUCRI ZAIDAN 1240,88656
896,1,84030061,BR,CAIO CHAGAS,,,,SAO PAULO,MORUMBI,,,04711-130,SP,CAIO CHAGA,"AV, DR CHUCRI ZAIDAN 1240",88739
897,1,84030065,BR,HERBERT BARBOSA,,,,SAO PALO,MORUMBI,,,0471-130,SP,,AV CHUCRI ZAINDAN 1240,89467
898,1,84030070,BR,GABRIELA LODI,,,,SAO PAULO,JD Joao XXIII,,,05569-080,SP,GABRIELA L,Rua Frei Apolonio todi 190,89981
899,1,84030071,BR,JEFERSON GRIZANTE,,,,SAO PAULO,MORUMBI,,,04711-130,SP,JEFERSON G,AV DR CHUCRI ZAIDAN 1240,90036
900,1,84030075,BR,JENIFFER AGUILAR,,,,Vila Mariana,Jardim,,,04116-240,SP,JENIFFER A,"Rua Galofre 127, apto 133",92152
901,1,84030080,BR,Henry Maldonesi,,,,Osasco,Centro,,,06010-170,SP,HENRY,Av. Hilario Pereira de Souza 492,95309
902,1,84040000,BR,Daniel Santiago,,,,São Paulo,Penha da Franca,,,03704-020,SP,DANIEL SAN,"Henrique Casela 58, apto113",58226
903,1,84040001,BR,Julia Christina Boch Rios,,,,São Paulo,Santo Amaro,,,04710-090,SP,JULIA CHRI,"Dr. José Áureo Bustama 400, apt 152",58326
904,1,84040002,BR,Josilene Santos,,,,São Paulo,São Paulo,,,04711130,SP,JOSILENE S,Doutos Chrcri mZAidan 1240,58327
905,1,84040005,BR,Andreas Martin Marquardt,,,,São Paulo,São Paulo,,,24853160,SP,ANDREAS MA,Av Dr.Chucri zaidan 1240,58787
906,1,84040006,BR,MATTHIAS WILHELM BRUECK,,,,São Paulo,São Paulo,,,04583110,SP,MATTHIAS W,Av. Dr. Chucri Zaidan 1240,58796
907,1,84040010,BR,Andrej Jammik,,,,São Paulo,São Paulo,,,04711130,SP,ANDREJ JAM,av. Doutor Chucri Zaidan 1240,82332
908,1,84040011,BR,ULISSES GONÇALVES,,,,SAO PAULO,MORUMBI,,,04711130,SP,ULISSES,AV CGUCRI ZAIDAN 1240,82768
909,1,84040012,BR,ANDRE CAMARA,,,,SAO PAULO,VILA SAO FRANCISCO,,,04583-110,SP,ANDRE CAMA,AVENIDA CHUCRI ZAIDAN 1240,82884
910,1,84040013,BR,THOMAS REESINK,,,,SAO PAULO,MORUMBI,,,04711-130,SP,THOMAS REE,AV DOUTOR CHUCRI ZAINDAN 1240,83168
911,1,84040014,BR,ANDREA LAMERCI MARCHETTI,,,,SAO PAULO,MORUMBI,,,04583-110,SP,ANDREA MAR,AV DR CHUCRI ZAIDAN 1240,83691
912,1,84040015,BR,Antônio Luis Ferreira Peixoto,,,,Guarujá,Lot. Joao Batista Juliao,,,11443-475,SP,ANTÔNIO LU,Rua Gilberto Glasser 700,83993
913,1,84040016,BR,Caio Fernando Simões da cunha,,,,São Paulo,Parque da Mooca,,,03127-040,SP,CAIO FERNA,"Rua Tacomaré 214, Apto 131",83994
914,1,84040020,BR,Fabio Vitureira,,,,São Paulo,Tatuapé,,,03320-000,SP,FABIO VITU,"Emilio Mallet 991, Ap. 11",84479
915,1,84040025,BR,POLIANA AMARAL CASTRO,,,,Sao Paulo,VILA SAO FRANCISCO,,,04583-110,SP,POLIANA AM,AV DR CHUCRI ZAIN 1240,85550
916,1,84040026,BR,ALIETE MORAIS,,,,Sao Paulo,VILA SAO FRANCISCO,,,04583-110,SP,ALIETE MOR,AV DR CHUCRI ZAIDAN 1240,85564
917,1,84040030,BR,Gabriel Pantazis,,,,BRASILIA,ASA SUL,,,70273-040,DF,GABRIEL PA,"QUADRA SQS 210 BLOCO 210, APTO 104",86373
918,1,84040035,BR,ANTONIO LUIS FERREIRA PEIXOTO,,,,SÃO PAULO,CHACARA SANTO ANTONIO,,,04718-000,SP,ANTONIO LU,RUA CAPITAO OTAVIO MACHA 430,86797
919,1,84040040,BR,Alexandre Laender Delgado,,,,São Paulo,Granja Julieta,,,04726-220,SP,ALEXANDRE,Rua Luis Correia de Melo 148,91262
920,1,84040041,BR,Alexandre Laender Delgado,,,,SAO PAULO,GRANJA JULIETA,,,04726-220,SP,ALEXANDRE,Rua Luis Correia de Melo 148,91263
921,1,84040045,BR,CARLOS GUSTAVO RUFATO DE OLIVEIRA,,,,São Paulo,MORUMBI,,,04711-130,SP,CARLOS GUS,Av. Dr. Chucri Zaidan 1240,96222
922,1,999000000,BR,CIELO S.A.,,,,Barueri,,,,06454-050,SP,CIELO S.A.,Alameda Garajaú 219,44485
923,1,999000010,BR,HILTON DO BRASIL LTDA,,,,BROOKLIN NOVO,,,,04578-000,SP,HILTON,AV DAS NACOES UNIDAS 12901,89790
